{"type":"FeatureCollection","crs":{"type":"name","properties":{"name":"EPSG:4326"}},"features":[{"type":"Feature","geometry":{"type":"Polygon","coordinates":[[[-110.795300423214,44.0836225993593],[-110.795271956501,44.0799967130179],[-110.795251046417,44.0763739945409],[-110.795230163281,44.0727512201284],[-110.795188870422,44.0654766726016],[-110.795147769803,44.0582382906369],[-110.79512711484,44.050999880453],[-110.795106460775,44.0437614701373],[-110.785084478173,44.0437634621746],[-110.775062497367,44.0437654264461],[-110.765040486918,44.0437673913631],[-110.755018505214,44.0437693808174],[-110.744996488476,44.0437713089284],[-110.734974444788,44.0437732389766],[-110.725060714568,44.0437751238245],[-110.724952401101,44.0437751393217],[-110.720057985073,44.0437761918404],[-110.714930329566,44.043777068724],[-110.714935501167,44.0462717236613],[-110.710519009531,44.046312805013],[-110.710259503313,44.0463152140798],[-110.705170548127,44.0463726113106],[-110.700279960718,44.0464147792855],[-110.695328344464,44.0463844487198],[-110.690391976214,44.0463541446117],[-110.685447998335,44.0463352601463],[-110.683456212364,44.0463229817215],[-110.680542161126,44.0463049560131],[-110.675384537821,44.046305161988],[-110.670257415914,44.0463168108694],[-110.665130321854,44.0463246262919],[-110.660010836524,44.0463362758152],[-110.659865922099,44.0425750343875],[-110.659736255678,44.0388176005523],[-110.659659981524,44.0350639686224],[-110.659644763164,44.0313561120329],[-110.659675296901,44.0276444484402],[-110.659698219212,44.0239365901428],[-110.659675364275,44.020194402193],[-110.659660144119,44.0164674617116],[-110.659705955503,44.0128244633767],[-110.659751766888,44.0091852689945],[-110.659797578272,44.0055346324936],[-110.659751831566,44.0018954437892],[-110.654578956665,44.001876608481],[-110.649406052119,44.0018577466735],[-110.644240817388,44.0018350782495],[-110.639067942487,44.0018162157827],[-110.63411629569,44.0018469542793],[-110.629179953491,44.0018662483803],[-110.624228307592,44.001896960358],[-110.619276689542,44.0019162544427],[-110.619444569397,43.9987691071809],[-110.619429281867,43.9956066567087],[-110.619406386506,43.9924480407254],[-110.619383489347,43.9892893949335],[-110.620233816629,43.9884270093554],[-110.62024238476,43.9814167040562],[-110.620251229572,43.9741840075042],[-110.620263016367,43.9669512821092],[-110.620274778009,43.9597185559957],[-110.620286538753,43.9524858036247],[-110.620298299497,43.9452530498943],[-110.6203070958,43.9416366735116],[-110.620315894798,43.9380202970742],[-110.62032324661,43.9344021131625],[-110.620330571473,43.9307839038277],[-110.610352136501,43.9309514092497],[-110.600373670088,43.9311189141999],[-110.600373670987,43.9308419627922],[-110.588940523108,43.9308424111263],[-110.578922447279,43.930842802529],[-110.568898898015,43.9308422248056],[-110.558875347853,43.9308416432006],[-110.548851799487,43.9308410641833],[-110.538828251122,43.930840485166],[-110.528804700061,43.9308398783299],[-110.518781151696,43.9308392967249],[-110.508757601533,43.9308387170606],[-110.498734004659,43.9308380778773],[-110.48871021285,43.9308372044991],[-110.478686422837,43.9308363304741],[-110.478685363724,43.9294134071383],[-110.467990232157,43.929412486511],[-110.467973079725,43.9221712593463],[-110.467955952445,43.9149300340227],[-110.467938798217,43.9076888050463],[-110.467921673633,43.9004475520332],[-110.467917193734,43.8968471876519],[-110.467912686886,43.8932279927973],[-110.467908180039,43.8896059618586],[-110.467903701039,43.8859839599045],[-110.467909721548,43.8823750685406],[-110.467915798651,43.8787662052519],[-110.467921875753,43.8751418417832],[-110.46792795106,43.8715174780455],[-110.467923000444,43.8679135610834],[-110.46791804893,43.8643096405854],[-110.467913097416,43.8606900828343],[-110.467908118055,43.8570705268585],[-110.467893000307,43.8534527191354],[-110.467877881661,43.8498349102431],[-110.46786276032,43.8462153807849],[-110.467847641673,43.8425958500305],[-110.467840942038,43.8390495448469],[-110.467840677035,43.8389097798503],[-110.467834266657,43.8355032103081],[-110.467827399037,43.8318583743375],[-110.467821198865,43.8285657684187],[-110.467804302452,43.8256183141135],[-110.467728056146,43.82562457272],[-110.467343789207,43.825595809178],[-110.467052949752,43.8255667332423],[-110.466627454633,43.8255831882638],[-110.466222820191,43.8256145973163],[-110.46604659319,43.8256527568559],[-110.465891561939,43.8257584628012],[-110.465694961147,43.8258567978596],[-110.465446649735,43.8259853569112],[-110.465062961311,43.826046747492],[-110.464658220868,43.8260631239629],[-110.46430514613,43.8260417604737],[-110.46398249823,43.8259075949429],[-110.463648847763,43.8256757880187],[-110.463263492066,43.8254742046084],[-110.462836949511,43.8253253526564],[-110.462483548685,43.8252513896045],[-110.462037010531,43.8252228170705],[-110.46175689157,43.8252462858628],[-110.461518617933,43.8253222081074],[-110.461447282716,43.8255328212369],[-110.461387089304,43.8258636137963],[-110.461369079879,43.8262994562413],[-110.461237024837,43.8267582154278],[-110.460989743793,43.8270520590112],[-110.460690505988,43.8273385610907],[-110.460349125519,43.8275275254789],[-110.459872801924,43.8277169312509],[-110.459521734023,43.8277488874453],[-110.459085839108,43.827765349642],[-110.458732851507,43.8277589966422],[-110.458492965394,43.8275794604455],[-110.458439370107,43.8273091503027],[-110.458406958892,43.8271063942097],[-110.458156459183,43.8268893246629],[-110.457771112469,43.8266877226678],[-110.457271073351,43.826403848676],[-110.45682344554,43.8262024472435],[-110.456115805759,43.8259192443062],[-110.455439546827,43.8256735067435],[-110.454878170741,43.8255400876339],[-110.454389926503,43.8254815656339],[-110.453807890064,43.8253632375895],[-110.453329612634,43.8252370589448],[-110.452851428628,43.8251259048336],[-110.452560598157,43.8250967884872],[-110.452187325698,43.8251656168734],[-110.452042467867,43.825241219062],[-110.45204348476,43.8254065120359],[-110.45209672611,43.8256242324727],[-110.452233428137,43.8259093020041],[-110.452317671246,43.8261043830059],[-110.452589369399,43.8263965305376],[-110.452966631275,43.82697384802],[-110.453031470774,43.8273868799859],[-110.452992588994,43.8278152760443],[-110.452818431711,43.8281915130021],[-110.452622634014,43.8284250631583],[-110.452281784449,43.8287041623773],[-110.451930223372,43.8289307024698],[-110.451526014732,43.829037193235],[-110.451090068613,43.8290461091483],[-110.450861734834,43.82905435951],[-110.450715662481,43.8289346121808],[-110.450599954981,43.8286870394215],[-110.450442862994,43.8284621379942],[-110.450441205602,43.8281916594641],[-110.450512484225,43.8279660238572],[-110.450801713898,43.8277321783304],[-110.451111383838,43.8274456710114],[-110.451244671368,43.8271747562584],[-110.451304969884,43.826851480879],[-110.451271290247,43.8264383467001],[-110.451083055466,43.826213552159],[-110.450801863917,43.8260641868228],[-110.45048104858,43.8259381762179],[-110.450148694382,43.8259091879408],[-110.449806741686,43.826007960857],[-110.449382020017,43.8261520787949],[-110.448936210396,43.8262436673053],[-110.448531285798,43.826229936361],[-110.448011764018,43.8261489459549],[-110.447658055968,43.8260223444747],[-110.447314405456,43.825843116081],[-110.447064641468,43.8257387233137],[-110.446628169834,43.8256574632838],[-110.446233626168,43.8256436881346],[-110.445922761469,43.8257348360766],[-110.445612490557,43.8259236571298],[-110.445468570567,43.8261570333998],[-110.445241837586,43.8264282372795],[-110.444932104764,43.8267072155717],[-110.444601378314,43.8269486923178],[-110.44407278894,43.8270856059358],[-110.443657519343,43.8270794006246],[-110.443238705893,43.8270681837533],[-110.442928222978,43.8270566784868],[-110.442772658127,43.8270509145114],[-110.442678026002,43.8270474090757],[-110.442096717198,43.827049234702],[-110.441640287694,43.8271032588275],[-110.441340013234,43.8272319286074],[-110.441143635225,43.8273753002526],[-110.44102046003,43.8276086028],[-110.440990976424,43.8278866942064],[-110.441023914052,43.8281871321012],[-110.441181644741,43.8285247437299],[-110.441431949515,43.828719310052],[-110.441816718613,43.8288308067737],[-110.442140448983,43.8288730139521],[-110.442492013653,43.828918848261],[-110.443073476068,43.8289395600741],[-110.443705846909,43.8287948111795],[-110.444317319343,43.8286275840636],[-110.444929292139,43.8285430034268],[-110.445376027923,43.8286016948088],[-110.445760979378,43.828743231757],[-110.445928620282,43.8289981564504],[-110.446054372743,43.8291931107081],[-110.446118205231,43.8294483659289],[-110.44605728598,43.8296739635299],[-110.445871701229,43.8298849306901],[-110.445540326195,43.8300212219328],[-110.445021819511,43.8301130280808],[-110.44439999579,43.8302878039354],[-110.443954695514,43.8304695340172],[-110.443801318061,43.8305740500622],[-110.443644528806,43.8306808891305],[-110.443469448055,43.8309143589105],[-110.443283987272,43.8311478608267],[-110.443083589302,43.8313108939702],[-110.442922402794,43.8314420249585],[-110.442577731795,43.8317327064567],[-110.442164415137,43.8320570836025],[-110.441677612694,43.8322464484321],[-110.441221502092,43.83236057729],[-110.440713300881,43.8324448161966],[-110.440101690106,43.8325969993331],[-110.439634481717,43.8325909416942],[-110.43932984414,43.8325344406379],[-110.439156393831,43.8325022705685],[-110.438802487254,43.8323455873596],[-110.438355060665,43.8321741697333],[-110.437845661102,43.832055533538],[-110.437399041201,43.8320193545547],[-110.43689025878,43.8320059009959],[-110.436392442992,43.8320900885615],[-110.436019637658,43.8322490210643],[-110.435792131227,43.8323999948533],[-110.435575712702,43.8326711437991],[-110.435483825828,43.8329344006866],[-110.435423258717,43.8332276131617],[-110.435476932157,43.8335279852921],[-110.435675732024,43.833790344806],[-110.435905278529,43.8339849872747],[-110.436259409685,43.8341792461422],[-110.436696064575,43.8342830863108],[-110.437080503092,43.8343344892269],[-110.437185964408,43.8343229309294],[-110.437433260725,43.8342958278567],[-110.437788434825,43.8342317118623],[-110.437941434088,43.8342040916466],[-110.438532839955,43.8341421456977],[-110.439155522465,43.8341026450454],[-110.439622610481,43.8340861625646],[-110.440017162231,43.8340924436112],[-110.440391355463,43.8341664119078],[-110.44066177172,43.8342482143908],[-110.440964101525,43.8344576464835],[-110.441100411886,43.8346826238135],[-110.441205893864,43.8349602908751],[-110.441208425316,43.8354533570791],[-110.44119026228,43.8358891930016],[-110.441099292586,43.8363027198825],[-110.440932541014,43.8366843138875],[-110.440893081617,43.8369325681811],[-110.44092572909,43.8372583691502],[-110.440845798792,43.8375845208309],[-110.440785427514,43.8377587713414],[-110.440773655092,43.8381213943],[-110.440816361,43.8384231640506],[-110.440768866173,43.8386897033394],[-110.440386221591,43.8390402831299],[-110.44035393614,43.839069862434],[-110.440019566123,43.8392425794632],[-110.439684559201,43.8393087414565],[-110.43912748874,43.8391743245407],[-110.438774433766,43.8389563891691],[-110.438331823045,43.8388097732117],[-110.438028976709,43.8387811151596],[-110.437771319224,43.8388062496761],[-110.437652892523,43.8388178012738],[-110.437424582101,43.8389428224879],[-110.437295234581,43.8390325084441],[-110.437098698468,43.8391687813883],[-110.437035008813,43.8394649644883],[-110.437102545953,43.8398199418007],[-110.437235184899,43.8401155177949],[-110.437234573147,43.8406580073986],[-110.437097006042,43.8409129816266],[-110.436836906038,43.8411979314858],[-110.436617778195,43.8414945988741],[-110.436480246125,43.8417554927656],[-110.436383786826,43.8420458551438],[-110.436141157258,43.842520183653],[-110.435921566781,43.8427398942229],[-110.435636109134,43.8428887662383],[-110.43495890697,43.8431986779999],[-110.434360563414,43.843486856423],[-110.433968917713,43.8436656495757],[-110.433740233591,43.8437314684638],[-110.433453624303,43.8436849905104],[-110.433019587104,43.8436093611485],[-110.432667494225,43.8435571615361],[-110.432290997713,43.8435287111473],[-110.431954925389,43.8434172632657],[-110.431626728595,43.8432525093349],[-110.431249718246,43.8431352622329],[-110.430850972261,43.8430183796689],[-110.43045801502,43.842972217336],[-110.430032683394,43.8429853457674],[-110.429525847623,43.8430519986066],[-110.429019388245,43.8431837665962],[-110.428512989055,43.8433273713901],[-110.428047736298,43.8435122876371],[-110.427794843478,43.8436373638038],[-110.427649150213,43.8439101125162],[-110.427536969499,43.8443189131904],[-110.427359062648,43.8446805497214],[-110.426992443113,43.844948041947],[-110.426698941052,43.8451265177952],[-110.426249421389,43.8452048209678],[-110.425840192064,43.8451764510536],[-110.425406188103,43.8451067153905],[-110.424988473292,43.8450250858762],[-110.424628199456,43.8449728842632],[-110.424317456928,43.8449974920366],[-110.4241134639,43.8450928164503],[-110.423962049265,43.8453447480879],[-110.423824448025,43.8456056244944],[-110.423662172759,43.8458428971924],[-110.423450302404,43.8459915204571],[-110.423164361463,43.8460634092476],[-110.42289542024,43.8462477222724],[-110.422814637441,43.8462870386654],[-110.422814632051,43.8462810063872],[-110.422814632051,43.8462642558146],[-110.422814021197,43.8453802646379],[-110.422812185041,43.8426551832725],[-110.422795182627,43.8390436906696],[-110.422778178417,43.8354322276331],[-110.422761202953,43.8318176538905],[-110.422744228388,43.8282031087785],[-110.422755421396,43.8245939495488],[-110.422766613506,43.8209847639499],[-110.422763305909,43.8173827746835],[-110.42775600302,43.8173761301942],[-110.427748888363,43.8137697765737],[-110.42790386841,43.8137695529382],[-110.427906448372,43.8093135702094],[-110.427908556718,43.8056907995048],[-110.427910638114,43.8020680573939],[-110.427912747359,43.7984452868653],[-110.427914853908,43.7948225443679],[-110.427916962254,43.791199775477],[-110.427919071498,43.7875770042233],[-110.427921151098,43.783954234539],[-110.427923260342,43.780331463871],[-110.427925340841,43.7767086948547],[-110.432923950662,43.7767059252432],[-110.437922559585,43.7767029331546],[-110.442921139762,43.7766997484254],[-110.447919722634,43.7766963133282],[-110.447920134063,43.773074398892],[-110.452918242624,43.7730770162365],[-110.457916352084,43.7730794409288],[-110.462912071127,43.7730818370799],[-110.467778562126,43.7730839860915],[-110.467772987182,43.7767177671151],[-110.472793957867,43.7767015788339],[-110.477814900705,43.7766851713143],[-110.482823815999,43.7766685957973],[-110.487832732192,43.7766517997443],[-110.492816146112,43.776660557432],[-110.497799560931,43.7766691218292],[-110.502793657616,43.7766774429922],[-110.507787726454,43.7766855105432],[-110.512760961563,43.7766852186637],[-110.517734167927,43.7766847030098],[-110.522722403105,43.7766839642303],[-110.527710609537,43.7766830049195],[-110.532686650086,43.7767000176031],[-110.537662691532,43.7767168363442],[-110.542645064305,43.7767334326038],[-110.547627438874,43.7767498336239],[-110.547659790801,43.7731183592374],[-110.547692171474,43.7694868556887],[-110.552662878724,43.7694788974454],[-110.557633612026,43.7694707445913],[-110.557624631568,43.7658346340855],[-110.557615649313,43.7621985231286],[-110.557606722754,43.7585911647624],[-110.557597824043,43.754983776417],[-110.562563699256,43.7550223230258],[-110.567529571773,43.7550606191514],[-110.567505755638,43.7513897597681],[-110.567481831706,43.7477188913133],[-110.572470957114,43.7477235214666],[-110.577460082523,43.7477279017795],[-110.577438000137,43.7441110993676],[-110.582406959266,43.7441144247125],[-110.585955430402,43.744117097838],[-110.585914703482,43.7425649107971],[-110.59095738555,43.7424868163379],[-110.591533680856,43.7424778738759],[-110.594032359191,43.74131132186],[-110.594897807814,43.7407306207168],[-110.595393013098,43.7403983371563],[-110.595689502057,43.7401213136858],[-110.595857142062,43.7399565966656],[-110.59669365595,43.7391346429148],[-110.596926918785,43.7387919504076],[-110.600929586214,43.7387911650788],[-110.600814256006,43.7351625886049],[-110.595762403936,43.7351756258522],[-110.595642153655,43.7315140203289],[-110.595521875527,43.7278524168324],[-110.598052011966,43.7278563850903],[-110.600582148404,43.7278602968717],[-110.601847217073,43.727862203427],[-110.603112284843,43.7278641112804],[-110.604377324766,43.7278659912203],[-110.605642364688,43.7278678984245],[-110.605590830137,43.726933054047],[-110.605539265941,43.7259982359773],[-110.605513485191,43.7255308279633],[-110.605500594367,43.7252971229133],[-110.605487703542,43.725063418899],[-110.605436140245,43.7241286287808],[-110.610501857811,43.7241329523928],[-110.615567577174,43.7241370552796],[-110.615378524028,43.7204849827341],[-110.615188582448,43.7168153241288],[-110.614998639969,43.7131456401135],[-110.620083252699,43.713155603775],[-110.619949199804,43.7094682222944],[-110.619815176554,43.7057808126611],[-110.621080913569,43.7057751097195],[-110.622346649686,43.7057694067773],[-110.623612384904,43.705763674612],[-110.62487809497,43.7057579443943],[-110.624906276917,43.6983192567776],[-110.624885321018,43.6974325253545],[-110.62486000829,43.6963614650571],[-110.624843740698,43.6956731244494],[-110.624839837518,43.6955079214758],[-110.624824784449,43.6949352393381],[-110.62481827885,43.6946599028206],[-110.624805265855,43.6941092298899],[-110.624792253758,43.6935585557997],[-110.624784640536,43.693236410756],[-110.624766230462,43.6924572080384],[-110.624747428723,43.6916614851214],[-110.624732629878,43.6910351888313],[-110.624372006597,43.69103578187],[-110.62311812914,43.6910559289444],[-110.621864281328,43.691076076012],[-110.620610405667,43.6910961951422],[-110.619356503058,43.6911163149153],[-110.61933416555,43.6902031373847],[-110.619311798398,43.6892899582923],[-110.619289433042,43.6883767802368],[-110.619267091941,43.6874635720388],[-110.619244726585,43.6865503934605],[-110.619222389976,43.6856372159211],[-110.619200022824,43.6847240368231],[-110.619177655671,43.683810829532],[-110.61910391297,43.6801578912376],[-110.614108017857,43.6802041462342],[-110.609104845492,43.6802504570665],[-110.604101673127,43.6802974344202],[-110.604085665149,43.6793753650856],[-110.604069658967,43.6784532984724],[-110.604053625836,43.6775312293837],[-110.604037590908,43.6766091610688],[-110.602786464991,43.6766213079663],[-110.601535337278,43.6766334555111],[-110.600284182615,43.6766455471788],[-110.599033056698,43.6766576667813],[-110.59402852069,43.6767059216686],[-110.592773867089,43.6767179847347],[-110.59151921259,43.6767300490977],[-110.59026455809,43.6767420855211],[-110.589009900896,43.6767541212923],[-110.583991226304,43.6768020700916],[-110.583927533954,43.6731758266374],[-110.583911610417,43.6722692575253],[-110.58389568688,43.6713626890133],[-110.583879762445,43.6704561211021],[-110.583863811959,43.6695495518431],[-110.583800645123,43.6659230579457],[-110.58373742349,43.6622965620001],[-110.583674257553,43.658670094592],[-110.583611033225,43.6550435985731],[-110.583547813388,43.6514107984367],[-110.583484479466,43.6477779430019],[-110.583387561128,43.6441375033373],[-110.583419127029,43.6427918314399],[-110.583453282773,43.6413358239458],[-110.583466562567,43.6407697367426],[-110.583474147043,43.6404463643264],[-110.583476654241,43.6400297871144],[-110.583737356117,43.6401099062423],[-110.583932442348,43.6401648306345],[-110.584127094694,43.6401676982266],[-110.584311595179,43.6401817650928],[-110.584454718363,43.6401476679863],[-110.584504520962,43.6399420038203],[-110.584554284036,43.6397670056888],[-110.584680963559,43.6396028215668],[-110.584854077897,43.6394793447999],[-110.585001551623,43.639352257724],[-110.585209642765,43.6391245007015],[-110.585463677344,43.6388779454183],[-110.585732727263,43.6385904187479],[-110.586058487826,43.6383472633504],[-110.586398925065,43.6379490232931],[-110.586464043939,43.6377739536942],[-110.586463112387,43.6376623952044],[-110.586400725288,43.6375511043604],[-110.586378936651,43.6373950135058],[-110.586356742874,43.6371905784198],[-110.586370616455,43.6370120166901],[-110.586522553909,43.6368068144402],[-110.586700431115,43.6366424050832],[-110.586847892264,43.6365153165578],[-110.586989519753,43.636302722448],[-110.587120933398,43.6360938912712],[-110.587212546285,43.6358568813616],[-110.587216204225,43.6356820813301],[-110.587296590867,43.6354957913275],[-110.587428560568,43.6353538931608],[-110.58761174053,43.6352117710063],[-110.587830554861,43.6350434602524],[-110.588135892227,43.6348115492912],[-110.588374876431,43.634605963084],[-110.588478963325,43.6344387617605],[-110.588496882918,43.6343025896901],[-110.588582537281,43.63413486674],[-110.588724586978,43.6339743328711],[-110.589020111147,43.6337945230119],[-110.589305364878,43.6336110410984],[-110.589775037346,43.6332124159562],[-110.589917109501,43.633055596686],[-110.590064150238,43.6328801643342],[-110.590170912315,43.6327867198803],[-110.590272767793,43.6327193306311],[-110.590379618803,43.6326370436958],[-110.590424989115,43.6325513093798],[-110.590438976782,43.6323876224379],[-110.590427325633,43.6322203284676],[-110.590456864036,43.6320788822495],[-110.59089763321,43.6312230353801],[-110.59099817086,43.630999464088],[-110.591130184579,43.6308650020551],[-110.591272942149,43.6307899902883],[-110.591487421212,43.6307183789866],[-110.591671300062,43.63066178209],[-110.591778017223,43.6305646202213],[-110.591884929318,43.6304897660794],[-110.592058438017,43.6304183384282],[-110.592267543357,43.6303169992377],[-110.592399961318,43.6302308779895],[-110.592450163668,43.630111653187],[-110.592464710087,43.6300149013616],[-110.592535142497,43.629865835975],[-110.592687920774,43.6297647487858],[-110.592825047704,43.6296302618833],[-110.592911197936,43.6294302680182],[-110.592914778621,43.6292480322534],[-110.592903094234,43.6290770187373],[-110.592880979509,43.6288837398279],[-110.592853174854,43.6286235502221],[-110.592855718883,43.6283185977848],[-110.592878528904,43.627987524638],[-110.592829332668,43.6276195845521],[-110.592750508197,43.627375542053],[-110.592759181431,43.627189563776],[-110.592803224931,43.6269476445259],[-110.592878395954,43.6267539354595],[-110.592989443893,43.6265637819718],[-110.593264346336,43.626372898953],[-110.593550208226,43.6262674973291],[-110.593825799677,43.6261584202976],[-110.594311291477,43.6260446885575],[-110.594764107957,43.6259454032983],[-110.595137331008,43.6258767943034],[-110.595566780511,43.6257967771458],[-110.59602189039,43.6257240804693],[-110.596415462978,43.6256405016491],[-110.596670972591,43.6255798540658],[-110.59701807982,43.6254518564923],[-110.59749338742,43.6253455923085],[-110.59806465216,43.6252014404272],[-110.598365764748,43.6250848028004],[-110.59864165983,43.6250129037872],[-110.598912875587,43.6249930869842],[-110.599225246761,43.6249953947723],[-110.599522448085,43.6250200859543],[-110.600126735793,43.6250285107749],[-110.600807769271,43.6250291499844],[-110.601330168355,43.625041659111],[-110.601959253159,43.625027609509],[-110.60225632782,43.6250374180902],[-110.602717277646,43.6250501990253],[-110.603121883342,43.6250595179543],[-110.603449803455,43.6250840569483],[-110.603690877141,43.6251313024654],[-110.603957453998,43.6251672788978],[-110.604183162002,43.6252145945779],[-110.604357864562,43.6252844554312],[-110.60464063984,43.6254170428947],[-110.604808154979,43.6255095039109],[-110.604963118857,43.6256649864346],[-110.60520477016,43.6257791662691],[-110.605415319093,43.6258488593507],[-110.605661581449,43.6259035165184],[-110.605963970543,43.6259356033186],[-110.606266039837,43.6259305027247],[-110.60650653411,43.625910808472],[-110.606782422903,43.6258388902889],[-110.607042562433,43.6257224171133],[-110.60724089877,43.6255653181964],[-110.607449441765,43.6254044564653],[-110.607663234514,43.6252584410757],[-110.607867479969,43.6250098345404],[-110.60804536526,43.6248565475705],[-110.608284560569,43.6246881031228],[-110.608518542954,43.6245085249383],[-110.608727109305,43.6243513799311],[-110.608946404236,43.624249964184],[-110.609140195097,43.6241598207556],[-110.609420770401,43.6240395291653],[-110.609742178627,43.6239041736895],[-110.609987196815,43.623817513277],[-110.610273249148,43.623738100738],[-110.610578950331,43.6236428876178],[-110.611013709775,43.6235888188485],[-110.611499380341,43.623501044051],[-110.61181627543,43.6234363599648],[-110.612123093219,43.623390316787],[-110.612429750209,43.6233256755003],[-110.61265392389,43.6231982005073],[-110.612867761555,43.6230596144709],[-110.613004338716,43.6228693263927],[-110.613202231285,43.6226638742623],[-110.613420924344,43.6224955153617],[-110.613665249932,43.6223307566631],[-110.613854101855,43.6222629427539],[-110.614067045697,43.6221948445894],[-110.61429219944,43.6221789214731],[-110.614578854542,43.6221701535477],[-110.614891703619,43.6222281981916],[-110.615230706248,43.6223493420386],[-110.615518777993,43.6225004725327],[-110.615740384289,43.6226630666026],[-110.615900548514,43.6228259463595],[-110.616096361483,43.6229663491842],[-110.616307109842,43.6230583340592],[-110.616486446811,43.6230723730666],[-110.616736969875,43.6230302996037],[-110.616915118373,43.6229104674569],[-110.617087822181,43.6227534710901],[-110.617291144167,43.622585176169],[-110.61751355715,43.622426730102],[-110.617758267217,43.6223065852616],[-110.618044362668,43.6222345931851],[-110.61835635655,43.6221959442376],[-110.618719808626,43.6221868043461],[-110.618965507737,43.6221782178541],[-110.619287940042,43.6221618310731],[-110.619615354404,43.6221305440727],[-110.61991142385,43.6220287467567],[-110.62018622119,43.6218377999148],[-110.620417876041,43.6216565055269],[-110.620559808957,43.6214959285734],[-110.620645560338,43.6213504935159],[-110.620756672057,43.6211789080228],[-110.620914266202,43.62105172957],[-110.621153973551,43.6209464746901],[-110.621373637689,43.6208896578923],[-110.621675114993,43.6208213006498],[-110.62200252666,43.6207900083996],[-110.622314638221,43.6207662233132],[-110.622626722832,43.6207387223439],[-110.622882421091,43.620704046484],[-110.623102311604,43.6206732588142],[-110.623342577705,43.6206312161879],[-110.623521143919,43.6205597143916],[-110.623731957855,43.6204488366903],[-110.623732857967,43.6205812215165],[-110.623733379888,43.6206577391382],[-110.62384875052,43.6206261255489],[-110.624013718037,43.6205580795064],[-110.624100046136,43.6205125043004],[-110.624161755006,43.6204799262203],[-110.624441487691,43.6203787243987],[-110.624690529433,43.620298052209],[-110.624768776288,43.6202609913879],[-110.624798968665,43.620185432478],[-110.624915842178,43.6200748103116],[-110.624953201314,43.6200430585484],[-110.625174742033,43.6198547619569],[-110.625379585765,43.6196876295005],[-110.625615741175,43.6195105713407],[-110.625892292926,43.6193365789445],[-110.626155097757,43.619130072266],[-110.62637799583,43.6189758813036],[-110.62651569319,43.6188863627386],[-110.626645571614,43.6188019302819],[-110.6270799358,43.6185682787894],[-110.627191721255,43.6185081482409],[-110.627419975983,43.6184155431377],[-110.627459880046,43.6183993530332],[-110.627714908162,43.6183264601143],[-110.627938918349,43.6182960705338],[-110.628158440553,43.6182657010984],[-110.628458291009,43.6181893365137],[-110.628700816373,43.6181520975007],[-110.628852483434,43.6181288095301],[-110.629249755283,43.6180810128753],[-110.629697828659,43.6180267414006],[-110.630074019743,43.6179597823868],[-110.630496370759,43.6179162284218],[-110.631216702836,43.6177605606703],[-110.63193334643,43.6176292335962],[-110.632487378788,43.6174888482235],[-110.632987054987,43.6173290444578],[-110.633553457147,43.6170607001756],[-110.634011864741,43.6168322258779],[-110.634321925448,43.6166733289121],[-110.634578257918,43.6165638813297],[-110.635119721049,43.6165317563592],[-110.635647366294,43.6164701812834],[-110.636243357162,43.616477138147],[-110.636690377712,43.6164848110521],[-110.637327811458,43.6165801031455],[-110.637816000001,43.6166465999929],[-110.638169122349,43.6167531006732],[-110.638454345537,43.6168402538302],[-110.638699392472,43.6169767925901],[-110.638931441682,43.6171724165717],[-110.639259565713,43.6175053039141],[-110.639283757344,43.6175187829703],[-110.639627141056,43.6177101070711],[-110.640049530699,43.6179835055005],[-110.640803242375,43.6182181139612],[-110.641115839026,43.6183346387452],[-110.641509240035,43.6184015823839],[-110.641888188948,43.618370220589],[-110.642253048684,43.6182798966555],[-110.642617629044,43.6181600628443],[-110.64286077694,43.618090007715],[-110.643104472808,43.6180789786145],[-110.64352486909,43.6181359424435],[-110.643972996364,43.6182616351906],[-110.644190332968,43.6183294354036],[-110.644326776279,43.6184369781922],[-110.644376597744,43.6185052763637],[-110.644550360666,43.6187434732713],[-110.644551824919,43.6189008696574],[-110.644631810912,43.619107539705],[-110.64489395638,43.6193154472626],[-110.645323783176,43.6198570283218],[-110.645658526892,43.6203667982841],[-110.645805911684,43.6207274186479],[-110.645935608648,43.620934915462],[-110.646198777297,43.6211023058744],[-110.646765303424,43.621189596445],[-110.646993122468,43.6211767945296],[-110.647578477284,43.6212236217197],[-110.647843637498,43.6211839192777],[-110.648147921139,43.6210768073533],[-110.648511270807,43.6208033000806],[-110.648586253184,43.6208305434978],[-110.648776191171,43.620804113618],[-110.649079775923,43.6206834914583],[-110.649118821196,43.6206295865071],[-110.649213482966,43.620602864549],[-110.649288542598,43.6206166004342],[-110.649782419273,43.62054158043],[-110.650236762889,43.6204709382412],[-110.650692168314,43.6203507751855],[-110.651223327769,43.6202578542656],[-110.651526748129,43.6201642347621],[-110.651811961435,43.6201380926798],[-110.652343895237,43.61991010806],[-110.65271421134,43.6199022287904],[-110.652835851314,43.6198980960103],[-110.653076265637,43.6198493025207],[-110.653177069189,43.6198316008078],[-110.653347792212,43.6197780950401],[-110.653671813636,43.6196034979677],[-110.653957204809,43.6194107725889],[-110.65411543047,43.6193752349326],[-110.65438102996,43.6193208683779],[-110.654527235264,43.6192909403812],[-110.655362096251,43.6190503504821],[-110.655732710595,43.6188533766704],[-110.655787129636,43.6186677336128],[-110.655880270558,43.6185300677614],[-110.656115303074,43.6184161902216],[-110.656417516997,43.6182725771125],[-110.656779976434,43.6180796614706],[-110.657075581452,43.6179507784229],[-110.657323916221,43.6178172314968],[-110.657492052994,43.617762486985],[-110.657640036962,43.6177176438972],[-110.657761230474,43.6176925354474],[-110.657828733478,43.6176970950043],[-110.657931255506,43.6177254584188],[-110.658177878984,43.6176721718938],[-110.658519459778,43.6175381313874],[-110.659376847817,43.6170049436797],[-110.659439313069,43.6169542670263],[-110.65979704647,43.6166640385996],[-110.659831668439,43.6164934425815],[-110.659884695092,43.6163951769171],[-110.659883570401,43.6162775837374],[-110.65982197382,43.6161847930982],[-110.659807451656,43.6160770680827],[-110.659846522981,43.6159298697924],[-110.659946113806,43.6157627686998],[-110.660092689216,43.6155709285158],[-110.660279549575,43.615359288553],[-110.6605071656,43.6151768397338],[-110.660782134519,43.6150088526927],[-110.661071153088,43.6148995893883],[-110.661265411972,43.6147565115938],[-110.661412218249,43.6145891705035],[-110.661518455709,43.6144122313083],[-110.661505292695,43.6143011413033],[-110.661463738427,43.6141886534238],[-110.661300678033,43.6140669786812],[-110.661158136957,43.6139745995756],[-110.661009220538,43.6139214502096],[-110.660927572661,43.6138483652019],[-110.660939423237,43.6136768077289],[-110.660964904848,43.6135198776549],[-110.661065282598,43.6134360717924],[-110.661193257492,43.6134158232171],[-110.661422223684,43.6133754671806],[-110.661630666966,43.6133058136216],[-110.661791430368,43.6131874001098],[-110.661964738742,43.6129709225803],[-110.66207766955,43.6127890512211],[-110.662231774639,43.6126804720041],[-110.662379556486,43.6126160234278],[-110.662534230208,43.6125662399756],[-110.662708662375,43.612467358469],[-110.662862576123,43.6123391781832],[-110.663077104592,43.6122008903668],[-110.663346392565,43.6121456243216],[-110.663525504955,43.6121141428417],[-110.663666914153,43.6120889273371],[-110.663815262838,43.6120832733755],[-110.663977144642,43.6120824512648],[-110.664064972927,43.6120967022651],[-110.664199996003,43.6121704989913],[-110.664507800141,43.6122524399632],[-110.66480166602,43.6123343391979],[-110.665286337659,43.6123672742086],[-110.666082389629,43.6123966131365],[-110.66614042978,43.6124057876867],[-110.666159866628,43.6123923380532],[-110.666312470632,43.6123882821546],[-110.666407811528,43.6123750536535],[-110.666521814924,43.6123483742054],[-110.66665528032,43.6123037417125],[-110.666770208083,43.6122500529873],[-110.666884383057,43.6121918588739],[-110.666941171854,43.612147003827],[-110.667015773346,43.6121022001286],[-110.667222135231,43.611726473046],[-110.667381696687,43.6114855588948],[-110.667440030586,43.6112402619456],[-110.667471386281,43.6109951018841],[-110.667543209283,43.6107497359415],[-110.66759262381,43.6106314299195],[-110.667635503992,43.6105287656366],[-110.667789212924,43.6103809787919],[-110.667956322024,43.6102233253016],[-110.668096585871,43.610080507609],[-110.668331468369,43.6099568062798],[-110.668694841393,43.6098667487423],[-110.668984824753,43.6098603621899],[-110.669315081384,43.6098341694474],[-110.66962511065,43.6098080814126],[-110.670029657955,43.6097913055559],[-110.670447459902,43.6097499610366],[-110.670761974456,43.6097004835156],[-110.670943225734,43.6096113511572],[-110.67100953308,43.6094934103901],[-110.67104828191,43.6093168119896],[-110.671107075747,43.6091205120169],[-110.671226907413,43.6089581948362],[-110.671400648775,43.6087907023202],[-110.671681587897,43.6085491578388],[-110.672029784783,43.6082876651928],[-110.672297325532,43.6080559866317],[-110.672586008132,43.6079172999983],[-110.672888892198,43.6078520410611],[-110.673273672075,43.6078843540949],[-110.673604689579,43.6079365461319],[-110.673888876111,43.6080281799929],[-110.674159861899,43.6081492756972],[-110.674370100015,43.6082657920231],[-110.674390538485,43.6082734035332],[-110.674681503703,43.6083817806132],[-110.674965838457,43.6084881099039],[-110.67524699587,43.6085306807242],[-110.675415949212,43.6085641076007],[-110.675986949847,43.60866589454],[-110.676042712769,43.6086660525972],[-110.676134027416,43.6086798178773],[-110.676349668898,43.6087614644028],[-110.676566982145,43.6088206069237],[-110.676958045737,43.6089747835992],[-110.677012185403,43.6089884427873],[-110.67724682805,43.608993607911],[-110.677318126436,43.6089848048905],[-110.677335988537,43.6089758503168],[-110.677443009328,43.6089491407416],[-110.677515107215,43.6089358373341],[-110.677587908482,43.6089360435229],[-110.677738372699,43.6088959485584],[-110.678031920574,43.608892273581],[-110.678179627861,43.6089332082635],[-110.678234472704,43.608960375754],[-110.678290161964,43.6089740375472],[-110.678726557241,43.6090517992651],[-110.678818720796,43.6090520594398],[-110.67888363216,43.6090792535445],[-110.678911585935,43.609065825282],[-110.678968218425,43.6090479772985],[-110.679137077444,43.6090439484927],[-110.679306102651,43.6090084073114],[-110.679411738241,43.60897506719],[-110.679744421221,43.6088700702083],[-110.679857875747,43.6087983560424],[-110.67991683128,43.6087805125326],[-110.68005042334,43.6087088535474],[-110.68024091918,43.6085675725053],[-110.680381717525,43.6083430264957],[-110.680489713887,43.6082368374448],[-110.680674816242,43.6081170454124],[-110.680887175281,43.6079971080914],[-110.68109058081,43.607890422137],[-110.681276594956,43.6078630434176],[-110.681535334911,43.6078385852057],[-110.681725797514,43.6078012792909],[-110.681947831408,43.6077407028244],[-110.682165779764,43.6077263597287],[-110.682461423409,43.6077578168369],[-110.682660063376,43.6077666232892],[-110.682796395297,43.6077692088305],[-110.682923575181,43.6077652417319],[-110.683023563961,43.6077680178554],[-110.683218760685,43.607750490159],[-110.683513355098,43.6076763276593],[-110.683771369214,43.6075792496239],[-110.684016563472,43.6074640179155],[-110.684333179186,43.6073204196289],[-110.684594880886,43.6071375028094],[-110.684856449635,43.606941385008],[-110.685163059913,43.6067054199199],[-110.68526146137,43.6065497667287],[-110.685246649049,43.6064310179348],[-110.685198912575,43.606200217509],[-110.685212128589,43.6060833804035],[-110.685283172752,43.6059179698446],[-110.685380886997,43.6056930067475],[-110.685528997627,43.6055106847172],[-110.68569982755,43.6053282456989],[-110.68591568912,43.6051059577699],[-110.686068903978,43.604979724296],[-110.686276800186,43.6048697012211],[-110.68656673324,43.6047856562866],[-110.686882623115,43.6047128080113],[-110.687108888074,43.6046224941371],[-110.687384793935,43.6044989090782],[-110.687570496366,43.6044418139429],[-110.687837978725,43.6043842894318],[-110.688041888209,43.6043303984909],[-110.688200065361,43.6042470423208],[-110.688249443057,43.6041873703581],[-110.688412798099,43.6041667004042],[-110.688539866592,43.6041528241585],[-110.688643863654,43.6041027643981],[-110.688942928982,43.6039161878819],[-110.689151328246,43.6037501781131],[-110.689224771809,43.603624319732],[-110.68925045644,43.6034488092951],[-110.689299960798,43.6033093802282],[-110.68932097419,43.6032310971919],[-110.689271161709,43.6030816160747],[-110.689212694858,43.602957221227],[-110.689124659961,43.6027940326518],[-110.6890494557,43.6026546306896],[-110.688962468238,43.6025386967573],[-110.688943507497,43.6023600509517],[-110.688987903137,43.602222639197],[-110.689038310302,43.6021142920022],[-110.689093864814,43.6020692388397],[-110.689151817828,43.6020222386588],[-110.689322873228,43.6019631356401],[-110.689483064403,43.6019622860695],[-110.689672618809,43.6020361049877],[-110.689822039184,43.6021018216899],[-110.690016816395,43.6021257299499],[-110.690211045634,43.6020956014945],[-110.690399220228,43.6020322474477],[-110.690598250963,43.6019106424363],[-110.690768339775,43.601755932446],[-110.690904059045,43.6015972473968],[-110.690999815861,43.6014470895833],[-110.691021320631,43.6013097973907],[-110.691014340721,43.6011851276118],[-110.690962013856,43.6011022692873],[-110.690898621543,43.6010568777454],[-110.69088604962,43.6009447098729],[-110.690924762517,43.6008114823207],[-110.691052120269,43.6006337304158],[-110.691210681899,43.600470766476],[-110.691460985775,43.6003281012709],[-110.691733878687,43.600156216396],[-110.692029490891,43.5999675804067],[-110.692302468245,43.5998040083623],[-110.692541199125,43.5996489312555],[-110.692689102245,43.5995670960654],[-110.692768781014,43.5995230102998],[-110.693071197057,43.5994424161699],[-110.693330705072,43.5993936164916],[-110.693564806035,43.5993466408926],[-110.693815815986,43.5992746349892],[-110.693998002411,43.5991863673672],[-110.694071576229,43.5991069919065],[-110.694110197498,43.5989654521646],[-110.694206105231,43.5988319190263],[-110.694342230539,43.5987147963315],[-110.694518358726,43.5985933062677],[-110.694712157672,43.598521598716],[-110.694963242183,43.5984579058717],[-110.695277092882,43.5983772439589],[-110.695505005352,43.5982845727271],[-110.695692819721,43.5981879570423],[-110.695765717108,43.5980420759313],[-110.695798778704,43.597917189902],[-110.695872517812,43.5978544416785],[-110.695986976654,43.5978579839659],[-110.696090458982,43.59790731054],[-110.69622847704,43.5979772415033],[-110.69640069486,43.5980345119184],[-110.696572614439,43.5980626920418],[-110.696675335894,43.5980372000153],[-110.696806283313,43.5979741429025],[-110.696936806727,43.5978695190053],[-110.697120740374,43.5976989770178],[-110.697257026481,43.5975984778471],[-110.697410389561,43.597489575853],[-110.697546209442,43.5973433554065],[-110.697698349017,43.5971139064712],[-110.697805559353,43.5969678373445],[-110.697866544181,43.5967762943732],[-110.697875869592,43.5965683973722],[-110.697862270895,43.5963564673951],[-110.697900663992,43.5961941437474],[-110.69794457005,43.5960110005258],[-110.698046357257,43.5958940616586],[-110.698165265454,43.595772870371],[-110.69838671724,43.5956095614688],[-110.698585670719,43.5954837823444],[-110.698699150397,43.5953917201575],[-110.698767178017,43.5953372505982],[-110.698897762517,43.5952326891265],[-110.699034252541,43.5951529720966],[-110.699199596452,43.5950980423558],[-110.699375832436,43.5949890135257],[-110.699466555093,43.5949095433972],[-110.699697213712,43.5947678480492],[-110.699975953758,43.5946125393634],[-110.70020964509,43.5945281398392],[-110.700443253776,43.5944354268966],[-110.700631308894,43.5943637462691],[-110.700818590563,43.5943179573342],[-110.700908221767,43.5942776730618],[-110.701152670424,43.5940892261837],[-110.7015320119,43.593788576683],[-110.701875992992,43.5931997030461],[-110.701890218713,43.5931412139935],[-110.701937994713,43.5929522508754],[-110.702103150876,43.5926793580424],[-110.702357268999,43.5924919354335],[-110.702556655466,43.5923180964896],[-110.702728329805,43.5922503638954],[-110.702966481272,43.5921564054111],[-110.703367163126,43.5919947613936],[-110.703575450999,43.5919201253365],[-110.70364958896,43.591893560434],[-110.703923898515,43.5918920718102],[-110.704289775144,43.5919033757212],[-110.704591511163,43.5919017355026],[-110.704902458507,43.5919066906411],[-110.705130777913,43.5918788687303],[-110.705367619636,43.5917912031465],[-110.705465731834,43.5915514655129],[-110.705527959931,43.5913783655682],[-110.70559877682,43.5911520644099],[-110.70577086079,43.590991657149],[-110.705915510212,43.5908313984556],[-110.706133786453,43.590717250507],[-110.706370898569,43.5906561584511],[-110.706535720559,43.5905123320111],[-110.706770223967,43.5901987578847],[-110.706958528817,43.5898389239206],[-110.707093001225,43.5895790500883],[-110.707207880479,43.5891930367156],[-110.70737837533,43.588879809672],[-110.70745874131,43.5886933251899],[-110.70748622347,43.5886231407422],[-110.707565642626,43.5884203108919],[-110.707654118596,43.5881341116246],[-110.707724996571,43.5879144539239],[-110.707878847436,43.5877607880537],[-110.70799885607,43.5876184173977],[-110.70819717983,43.5873449043645],[-110.708332740098,43.5871913378947],[-110.708477516182,43.5870443643203],[-110.708622011094,43.586870814809],[-110.708746847274,43.5865644806963],[-110.708707452556,43.5862922694453],[-110.708677341926,43.5860332932121],[-110.708702362701,43.5858005952132],[-110.708755358812,43.5856209002523],[-110.70893724969,43.5855268832676],[-110.709247343635,43.5854520921334],[-110.709565951812,43.585317456015],[-110.709851267526,43.5851661084484],[-110.70995980647,43.585052557506],[-110.709994239793,43.5848463833971],[-110.710038020985,43.5846600972457],[-110.710237430808,43.5844928884615],[-110.710464337164,43.5843321732394],[-110.710673022991,43.5841782021532],[-110.710863286168,43.5840110427856],[-110.711089442431,43.58389916589],[-110.711243751437,43.583825063787],[-110.711490914803,43.583733544678],[-110.711637637537,43.5836763927475],[-110.711924579201,43.5836213152317],[-110.712032536037,43.5835643701212],[-110.712077711415,43.5834345157805],[-110.712099499153,43.5832935222171],[-110.712121118907,43.5831356220483],[-110.712057392421,43.5829725560603],[-110.711977458531,43.5827419610739],[-110.711990381694,43.5824939505338],[-110.712019399973,43.5823022001151],[-110.712172003078,43.5820646905229],[-110.712262393359,43.5818106169325],[-110.712275615662,43.5815907819328],[-110.712272800341,43.581320316893],[-110.712224348808,43.5811346269696],[-110.712291095431,43.5809125613644],[-110.712265956077,43.5807323813256],[-110.71215565913,43.5805639388827],[-110.71196859665,43.5804691714993],[-110.711788644336,43.580312379304],[-110.711616148038,43.5801273747648],[-110.711536747747,43.5799474878174],[-110.711387455832,43.5797567216874],[-110.711222540417,43.5795547626073],[-110.711003651525,43.5793812806574],[-110.710705813296,43.5792616049247],[-110.710748694376,43.5789889376559],[-110.710864979493,43.5787424513641],[-110.711036182216,43.5785023064392],[-110.711189311735,43.578282190592],[-110.711489114579,43.5781011417109],[-110.711707540839,43.5780069164491],[-110.711899442543,43.5779992165097],[-110.712156027439,43.5780576070422],[-110.712403536656,43.578122690049],[-110.712546553839,43.5781945865516],[-110.71269648805,43.5781634471814],[-110.71276312418,43.5781501089835],[-110.713473272955,43.5780033209316],[-110.71395835692,43.5778964874305],[-110.714145091514,43.5777638433571],[-110.714278361977,43.5775953119129],[-110.714345569435,43.5773574993618],[-110.714356292624,43.577132659209],[-110.714319264967,43.5769239179666],[-110.714256175386,43.5767216487215],[-110.714413959076,43.5765503309396],[-110.71451303337,43.5763863691999],[-110.714619737056,43.5762110949517],[-110.714735607151,43.5761710100678],[-110.715005876084,43.5760680826315],[-110.71530739022,43.5759875280273],[-110.715677604813,43.5758051615432],[-110.716071613083,43.5756733764713],[-110.71630992445,43.5754804654307],[-110.716510115807,43.5753497508669],[-110.716611921879,43.575188955919],[-110.716851647194,43.5751312804409],[-110.717068526554,43.5751131718314],[-110.717323456754,43.5750272357484],[-110.717470042045,43.5749588016532],[-110.717625022093,43.5749523027108],[-110.717888706375,43.5749621136015],[-110.718197546271,43.5748420613797],[-110.718397621746,43.5747000753866],[-110.718589174904,43.5744848781328],[-110.718680119445,43.5742871511767],[-110.718779592592,43.5741626271684],[-110.718995046326,43.5740092815406],[-110.719296548783,43.5736784879826],[-110.719426078661,43.5734636339659],[-110.719555964271,43.5732825920741],[-110.719818639745,43.5731966032652],[-110.720081070877,43.5730880768996],[-110.720413273259,43.5729791617948],[-110.720722328751,43.5728816437904],[-110.721139322214,43.5727271702674],[-110.721455365701,43.5725563572305],[-110.721647072471,43.5723580596699],[-110.721832100267,43.5722612311951],[-110.722072343909,43.5722542562014],[-110.722448469417,43.5722284981162],[-110.722758359444,43.5722098640608],[-110.723130019427,43.5721683388179],[-110.723392863784,43.5720992480344],[-110.723554630604,43.5720025467076],[-110.723738883153,43.5718324638095],[-110.723807156013,43.5716912074723],[-110.723922650613,43.5716173018673],[-110.724116325591,43.5716049475936],[-110.724317503299,43.5715700097563],[-110.724595665728,43.5714839228283],[-110.724827139119,43.5713811936984],[-110.725019436981,43.5712392405488],[-110.725188048963,43.5710579752379],[-110.725294065438,43.5708207096173],[-110.725315221661,43.570623365698],[-110.725297625461,43.5704262372157],[-110.725303820243,43.5702796887254],[-110.725403570969,43.5701833333364],[-110.725567386846,43.5700372274897],[-110.725790319055,43.5698612865048],[-110.725943673152,43.5697026475276],[-110.726089090634,43.5695271403425],[-110.726266053355,43.5694021769208],[-110.726535431159,43.5692203404772],[-110.726718822224,43.5689713688804],[-110.726801681928,43.5687455002795],[-110.726884971924,43.5685590738392],[-110.726953533144,43.5684459888447],[-110.727030384016,43.5683835698306],[-110.727193102152,43.5683770200611],[-110.727441739653,43.5684319709327],[-110.727659312513,43.568481457005],[-110.727938417275,43.5684855178161],[-110.728146979134,43.5684167222108],[-110.728424519031,43.5682742817265],[-110.728759942772,43.5680792186076],[-110.729053100778,43.5679479575111],[-110.72926917435,43.5678565756874],[-110.729469675627,43.5677596508045],[-110.729810666227,43.5677520849384],[-110.730043683822,43.5677958496594],[-110.730486518223,43.5678891399605],[-110.730843258087,43.5679040223696],[-110.731160933812,43.5678909546188],[-110.731392678494,43.5678163863083],[-110.731570712007,43.5677928354213],[-110.731772544587,43.5678198678789],[-110.732066970116,43.5678069237774],[-110.732237436221,43.5678003212237],[-110.73250823516,43.5677537056376],[-110.732662354622,43.567668303192],[-110.732785035744,43.5675436385754],[-110.732814527434,43.5674025921792],[-110.732828096487,43.567222197276],[-110.732834514051,43.5670981891354],[-110.732887495788,43.5669795545005],[-110.733005610773,43.5669083443173],[-110.733175703179,43.5669227401014],[-110.733169856943,43.5664448961247],[-110.733153061142,43.5650720820023],[-110.733133989909,43.5635120349016],[-110.733090221293,43.5599309087713],[-110.733044585979,43.5561960023747],[-110.732998950664,43.5524610688988],[-110.732945181104,43.548902025803],[-110.732928214623,43.5477791606835],[-110.732962201484,43.5474726322588],[-110.733010116723,43.5471350100203],[-110.733125254691,43.5466683761966],[-110.733236673634,43.5463547020032],[-110.733404287588,43.545876358266],[-110.733730828787,43.5451470257203],[-110.733991006046,43.5446587836481],[-110.734398859151,43.5438443146554],[-110.734949141043,43.5427668605231],[-110.735182128096,43.5423441818606],[-110.735391543355,43.5419009202474],[-110.735652037719,43.5414077446843],[-110.735929759974,43.540841659697],[-110.736130450795,43.5404258641681],[-110.736254839614,43.5400559174972],[-110.736389878859,43.5396495483401],[-110.7365064712,43.5391943943889],[-110.736616212988,43.538851966199],[-110.73666299096,43.5387060083814],[-110.73677987705,43.538276020815],[-110.736863235318,43.5380035587321],[-110.737767612434,43.5380009552161],[-110.739556959462,43.5379958686566],[-110.739928446968,43.5379887236385],[-110.740715256172,43.5379735876846],[-110.741458192557,43.5379593015495],[-110.742201236739,43.5379451547689],[-110.743038556415,43.5379290283207],[-110.743039770039,43.5385363993247],[-110.743041159733,43.5392307738551],[-110.743042625783,43.5399638285107],[-110.743044923674,43.5415452601022],[-110.743047942013,43.5430541681408],[-110.743049600303,43.5434507810245],[-110.743053037258,43.5451681932184],[-110.74306045824,43.5488752368275],[-110.747938075773,43.5488342332971],[-110.752933918783,43.5487920135063],[-110.753027492693,43.5524095833159],[-110.753086983623,43.5561545435618],[-110.753145826867,43.5594758610814],[-110.753148812867,43.5596480509117],[-110.753153170594,43.5598993921605],[-110.753179781388,43.5614680003845],[-110.753126603818,43.5614425813888],[-110.752900192434,43.5613610542279],[-110.752843366806,43.5613474252386],[-110.752805448019,43.5613473432185],[-110.752729791906,43.5613021592919],[-110.752692261192,43.5613020779227],[-110.752635435564,43.5612884482691],[-110.752465406938,43.5612340552577],[-110.752351758377,43.5612067959165],[-110.752314116271,43.561233727177],[-110.752276141789,43.5612471524436],[-110.75223860838,43.5612470704235],[-110.752217272494,43.5612605288858],[-110.752144066086,43.5612783799772],[-110.752097156062,43.561300789036],[-110.752030475915,43.5613321591004],[-110.751822836626,43.5614847792983],[-110.751709076673,43.5615790759777],[-110.751709408151,43.5615925831871],[-110.751595905117,43.5617183960245],[-110.751520230139,43.5617722561233],[-110.751388008011,43.561839500299],[-110.751038122292,43.5619557944913],[-110.750896834366,43.5619689911151],[-110.750799692348,43.5620678260738],[-110.750859298262,43.5620634556313],[-110.750878202409,43.5620770011378],[-110.750878200612,43.5621715462017],[-110.750859184176,43.5621850116178],[-110.750802192359,43.5622119001298],[-110.75076465895,43.56221181746],[-110.750651507157,43.5622520893424],[-110.750500303627,43.5623237932364],[-110.750292623014,43.5623908714573],[-110.750198042991,43.5624311835783],[-110.75014136289,43.5624760802446],[-110.750084759146,43.5625029692776],[-110.7498956521,43.5625700876573],[-110.749801402657,43.5626239072875],[-110.749744521334,43.5626237816563],[-110.74963123659,43.562695568428],[-110.749347801948,43.5628345122554],[-110.749272236565,43.5628613588176],[-110.749158474815,43.5628611088581],[-110.749101650984,43.5628474782553],[-110.749064172372,43.5628338893093],[-110.749029054532,43.5628113024642],[-110.748789755019,43.5628512953452],[-110.748502512418,43.5628821783531],[-110.748341413047,43.5629133399457],[-110.748134153745,43.5629714098741],[-110.747984400095,43.5630656235109],[-110.747892450339,43.5631239478074],[-110.74778857994,43.5631642386081],[-110.747707813311,43.5632315918885],[-110.747638411269,43.56335749699],[-110.747557550317,43.5634473605107],[-110.74743112322,43.5635146125805],[-110.746964210376,43.5636666505281],[-110.746809611214,43.563715832627],[-110.745985730335,43.5638220546797],[-110.745932680326,43.5638309417674],[-110.745625328938,43.5638572697491],[-110.745597912355,43.5638437038132],[-110.745564907353,43.5638706417061],[-110.745471114255,43.5639064497395],[-110.745466686458,43.5639469587274],[-110.745463883715,43.5639694631303],[-110.745105698462,43.564396366279],[-110.74473739189,43.5645621213949],[-110.744607607789,43.5645978483035],[-110.744503403216,43.5646246270354],[-110.744449559097,43.5646380144442],[-110.744104403008,43.5647272843722],[-110.743899066999,43.5647853512503],[-110.743359135496,43.564905697554],[-110.743162566145,43.5649952970981],[-110.743152079213,43.5650040564339],[-110.743152482556,43.5650349500547],[-110.74322020924,43.5670852787252],[-110.743332703467,43.5707290171401],[-110.743445168947,43.5743727225597],[-110.743557664072,43.5780164593749],[-110.74367013045,43.5816601683218],[-110.743742067538,43.5853316281152],[-110.743814004626,43.5890030604959],[-110.743885912968,43.5926745213792],[-110.743957850056,43.5963459528165],[-110.744085956104,43.5999682439524],[-110.744214087304,43.6035905349397],[-110.749234093199,43.603567173028],[-110.749362669066,43.6071999922265],[-110.754383125915,43.6071869245479],[-110.754512172499,43.6108302433777],[-110.749491245831,43.6108326713863],[-110.749583264757,43.6144764067521],[-110.744581041013,43.6144879353533],[-110.744691756575,43.6181407555987],[-110.744709810916,43.6187445118515],[-110.744800890204,43.6217899919018],[-110.741721835516,43.6217087695011],[-110.739733357143,43.6216562707685],[-110.739827490703,43.6253005897101],[-110.732362293062,43.6323823624462],[-110.728641169322,43.6359115612858],[-110.728621122518,43.635930572209],[-110.724899934098,43.639459295477],[-110.726855173908,43.6394256296324],[-110.727035959859,43.6394534588084],[-110.728020497241,43.6394507641111],[-110.733953858014,43.6395164867379],[-110.735015566069,43.6395284565112],[-110.735279770475,43.6395313657404],[-110.735476666813,43.6395335279964],[-110.742320203327,43.6396113919175],[-110.745129921533,43.6396435078058],[-110.748554836589,43.639680548876],[-110.748753110043,43.6396238518519],[-110.749075346516,43.639540754586],[-110.749484181479,43.6394210522203],[-110.749943322998,43.6393552072685],[-110.750377407807,43.6392714536702],[-110.750849179639,43.6392235776088],[-110.751148194661,43.6391426466103],[-110.751967991799,43.6360973506888],[-110.752079733237,43.6356792577342],[-110.752254637918,43.6350291899848],[-110.752333438135,43.6347397386314],[-110.752870477961,43.6345110799058],[-110.755953330726,43.633198383218],[-110.757672830147,43.6324661490534],[-110.757854638381,43.6323887258008],[-110.757864553087,43.6302165890234],[-110.759817289292,43.629384294453],[-110.760159158445,43.6292385878314],[-110.760198770555,43.629221697755],[-110.76020335376,43.6292181683683],[-110.760249964645,43.6291824167352],[-110.762828275936,43.627203700005],[-110.764290903898,43.626693010044],[-110.764424059376,43.6264705331757],[-110.764725773836,43.6262360616072],[-110.76501067363,43.6259318877662],[-110.765375930421,43.6256505019561],[-110.765613171894,43.6253815094389],[-110.765642598008,43.6250612509069],[-110.765655464578,43.6247819659345],[-110.765651780587,43.62445624389],[-110.765712691753,43.6241766712872],[-110.765900556429,43.6237916374461],[-110.766232703115,43.6234173782537],[-110.766771888118,43.6229371760339],[-110.767311590551,43.6225034983381],[-110.767947514229,43.6220808803481],[-110.768392946557,43.6218106388917],[-110.768758029075,43.6215176070432],[-110.768979753949,43.62129523718],[-110.769056265258,43.6209806711334],[-110.769067783457,43.6205850570571],[-110.768998959031,43.6201666578417],[-110.76888315092,43.6198416066334],[-110.76881472355,43.6194581045055],[-110.76885827118,43.6190622996193],[-110.76894934957,43.6186196727008],[-110.768944326191,43.6181776213247],[-110.768860549307,43.617852385722],[-110.768679354623,43.6174113894199],[-110.768489301651,43.6169821534337],[-110.768338696399,43.6164745646864],[-110.768263293611,43.6162120002369],[-110.768188489999,43.6160020391626],[-110.768379010992,43.6157729501504],[-110.768688423116,43.615385344263],[-110.769524280335,43.6145912894314],[-110.770524676574,43.6134104867704],[-110.770952942098,43.612864352113],[-110.771451824186,43.6121599826235],[-110.772861447953,43.6100734804099],[-110.773718904265,43.6090688543652],[-110.774671862271,43.6079759698228],[-110.775410192993,43.6071123261971],[-110.776314820739,43.6060197248355],[-110.776622118228,43.605456762912],[-110.776666561478,43.6051233418305],[-110.776756101952,43.6044429906732],[-110.776724114742,43.6037593507298],[-110.776718878462,43.6033034906112],[-110.776808966909,43.6027418485124],[-110.776995579332,43.6021796222154],[-110.777180381651,43.6014595938584],[-110.777464726286,43.6010019813665],[-110.777748864309,43.6005268277864],[-110.77803521578,43.6002445391915],[-110.778442429285,43.5999790467355],[-110.77913921562,43.5997117966561],[-110.779643756196,43.5995158498077],[-110.780340936891,43.5992836528086],[-110.781015195276,43.5991567988591],[-110.781470439902,43.5988734746712],[-110.78211913942,43.598624028477],[-110.782479076388,43.598446484141],[-110.782643935209,43.5980947923981],[-110.782759921187,43.5976907975323],[-110.782852172777,43.5973220084667],[-110.782992488726,43.5969353974412],[-110.783036689431,43.5965844424212],[-110.783072385785,43.5962592409773],[-110.784420689653,43.596261279229],[-110.787583799702,43.596241877776],[-110.790210039707,43.5962258202747],[-110.792597556916,43.5962111712654],[-110.797612816113,43.5961806586106],[-110.797748068259,43.596179838885],[-110.802628073513,43.5961501465911],[-110.805715913725,43.5961813748948],[-110.806622376729,43.596190527847],[-110.807629944219,43.5962006898407],[-110.811372266404,43.5962385279638],[-110.812631843671,43.5962512356502],[-110.817572406156,43.59631792022],[-110.81778938523,43.5963208543108],[-110.822054758675,43.5963784528903],[-110.822059253845,43.5998864801049],[-110.822059368829,43.5999896751734],[-110.822063891847,43.6035320917641],[-110.822063976288,43.603600869366],[-110.822068557696,43.6071777017183],[-110.82206861429,43.6072120907217],[-110.822073222648,43.6108232865113],[-110.822099313317,43.6119502721165],[-110.822715118325,43.6115524704834],[-110.823513019927,43.6109751568816],[-110.824432945982,43.6105537788641],[-110.825352281844,43.6103326530387],[-110.826363160524,43.6102229135832],[-110.827006815104,43.6100236128994],[-110.828524128907,43.6095029606823],[-110.829933767946,43.609149014117],[-110.830975366315,43.6089947754461],[-110.831495822343,43.6090400335131],[-110.832199583197,43.609241312176],[-110.833056460994,43.6094428061089],[-110.833485115488,43.6094656720607],[-110.83385307531,43.6092881889883],[-110.834312595917,43.6092220911764],[-110.835077491619,43.6094679420694],[-110.835781208456,43.6096914477448],[-110.836516694213,43.6094922246525],[-110.837590335488,43.6088039446185],[-110.838693685846,43.6084494618771],[-110.839612585127,43.6083617287217],[-110.841052521645,43.6080966903242],[-110.842905235833,43.6080658305041],[-110.843701462975,43.6080446512813],[-110.844619377702,43.6083351450599],[-110.845935899175,43.608425898914],[-110.846763258331,43.6082044810204],[-110.847529705423,43.6078494685322],[-110.848234955685,43.6074721206197],[-110.848939419022,43.6074062848967],[-110.849673784581,43.6076297455465],[-110.850929164919,43.6076758612854],[-110.851572822193,43.6074319206067],[-110.852155990509,43.6068763851961],[-110.853198950724,43.6061211661285],[-110.854271966771,43.6055884866885],[-110.855284578302,43.6046997040159],[-110.856956507437,43.6033778263307],[-110.857508550027,43.6030002344001],[-110.858152494762,43.6026004994632],[-110.859316332281,43.602468402908],[-110.860601875352,43.6026702070525],[-110.861796227743,43.6025826241915],[-110.862960361706,43.6023169839791],[-110.864063594385,43.6018955049738],[-110.86544262872,43.6013630762962],[-110.866637193113,43.6011641886113],[-110.868597307182,43.6009216494277],[-110.86936281284,43.600900256269],[-110.870036940968,43.6006562471303],[-110.870343553043,43.6004563273202],[-110.870987859799,43.5998340111107],[-110.871341784342,43.5989777325172],[-110.871222011067,43.5977092864338],[-110.871283954398,43.5973755888614],[-110.871744287082,43.5968643183147],[-110.87247992196,43.5964646057157],[-110.874073392238,43.5957765494028],[-110.877092453838,43.5940998036141],[-110.877827794967,43.5938113106577],[-110.878716201834,43.5935229718128],[-110.880431278849,43.5931909712332],[-110.882299409025,43.5928590989444],[-110.883309767582,43.5928156087792],[-110.884748382678,43.5929505417206],[-110.886125569179,43.5931966516937],[-110.88698389506,43.5925967040086],[-110.888915198361,43.5911744805718],[-110.889866036343,43.5901740784304],[-110.89029602753,43.5893956921906],[-110.891246694832,43.5884620318371],[-110.891431125248,43.588039430984],[-110.891662604029,43.5869827154623],[-110.891540597542,43.5867378404421],[-110.891082349848,43.5862256394851],[-110.89016527235,43.5855349967346],[-110.891421103643,43.585091145733],[-110.892125777186,43.5847357782197],[-110.892646977917,43.5842689833377],[-110.893015279997,43.583713042088],[-110.893108128967,43.5831345965183],[-110.893262468516,43.5824004492453],[-110.892958934069,43.5809538482633],[-110.892548860329,43.5791845049205],[-110.892916738404,43.578851073614],[-110.893437922965,43.5783620230272],[-110.894234753775,43.577761963268],[-110.894970354517,43.5771618441646],[-110.896166063364,43.5759613472208],[-110.896350992345,43.5752049708735],[-110.896689623071,43.5740482087616],[-110.898035636235,43.5744054056623],[-110.899350838083,43.5748960678905],[-110.900100609748,43.5749300855115],[-110.900865378787,43.5751532470066],[-110.901997129383,43.5755547183771],[-110.902700450962,43.575933573908],[-110.904198760905,43.5768026019259],[-110.905391291513,43.577515604712],[-110.906308525317,43.5781393712635],[-110.907348445633,43.5786074703017],[-110.908051193188,43.5794090634428],[-110.908325044602,43.5804773325016],[-110.908569271375,43.5809002948955],[-110.909547839452,43.5815018304798],[-110.909669742633,43.5818579426482],[-110.909546809084,43.5821916149909],[-110.90940815412,43.5828034145038],[-110.909437665574,43.583537724096],[-110.909589351499,43.5844501366549],[-110.910444788398,43.5855633466854],[-110.910841514072,43.5863869391698],[-110.911360600169,43.5872773750392],[-110.911848893815,43.5883012920762],[-110.912399202656,43.5887912268497],[-110.913224903523,43.5893703669627],[-110.91446406927,43.589827419874],[-110.915565695761,43.5901397278353],[-110.917156868149,43.5906526300538],[-110.918686930843,43.5910987146528],[-110.919574219307,43.5914775907899],[-110.920675317589,43.5922348720178],[-110.921133803337,43.5927914547918],[-110.922296233196,43.5935042591181],[-110.923580953409,43.5943728864858],[-110.92455972181,43.5951077979169],[-110.925293366021,43.5960205555609],[-110.925355580643,43.5960885109632],[-110.925985123588,43.5964870725952],[-110.926432004899,43.596812420487],[-110.92672489341,43.597340840979],[-110.926975926718,43.5978082839308],[-110.927142974734,43.5983772589216],[-110.927365888976,43.5989869006571],[-110.92753079451,43.5991397006148],[-110.927784675477,43.5992818781289],[-110.929100475603,43.5999279491508],[-110.930171485712,43.6004626075337],[-110.930783365083,43.6008857345995],[-110.9309660357,43.6017981339845],[-110.931271718018,43.6022433306352],[-110.932067239084,43.6027555611563],[-110.932648734737,43.6030006520225],[-110.933597944972,43.6030011841333],[-110.934623857857,43.6028571243939],[-110.935358450689,43.603102281848],[-110.936031373279,43.603770174949],[-110.936980056202,43.6042824516644],[-110.938388342378,43.6045501946741],[-110.939551989455,43.6044395365892],[-110.941236229103,43.6043068670891],[-110.942491784612,43.6041962222169],[-110.943685901645,43.6042412887478],[-110.944971743854,43.6044643949313],[-110.946747559559,43.6046432016625],[-110.948097404038,43.6047504170153],[-110.94815599755,43.6047550699221],[-110.948155748717,43.6050443339179],[-110.948216609578,43.6054893790531],[-110.948338389689,43.6063127170778],[-110.948429455503,43.6072472966785],[-110.948382450257,43.6085044568319],[-110.948045202937,43.6089715834461],[-110.947432328232,43.6094608380477],[-110.946972811218,43.6096608970467],[-110.946513428952,43.6097051952286],[-110.945992700734,43.6098607205757],[-110.944828786858,43.6101272049003],[-110.943082830255,43.6105936619874],[-110.942408757822,43.6109716069111],[-110.942132785486,43.6113497400305],[-110.941979153809,43.611883690076],[-110.941580010769,43.6129515421251],[-110.941579580476,43.6133965619266],[-110.941946221571,43.6142867783095],[-110.942481051541,43.6154552100346],[-110.942725361858,43.6161896077104],[-110.943030720782,43.6171465437339],[-110.943183018461,43.6180366532273],[-110.943090633022,43.6185706323475],[-110.943059608805,43.6189933855683],[-110.943794234875,43.6194610003992],[-110.944589882604,43.6201956508981],[-110.945171253391,43.6208189419773],[-110.945354219553,43.6217090614857],[-110.945873684739,43.623066570572],[-110.945848151924,43.6230529757082],[-110.945414474051,43.6228216356015],[-110.94483251307,43.6228213709343],[-110.944158726301,43.6227543080116],[-110.943056422481,43.6223755247782],[-110.94288809796,43.6222308162762],[-110.942061227487,43.622141420261],[-110.941448441716,43.6223636270223],[-110.940682338678,43.6227415174842],[-110.940253219755,43.6230528170385],[-110.940099475789,43.6236535164265],[-110.939762103603,43.6240983653387],[-110.938934459681,43.6247209734936],[-110.938229801409,43.6248763689704],[-110.937249310937,43.6251428699904],[-110.936636748847,43.6251203000168],[-110.936054565084,43.6252757451817],[-110.935564046312,43.6256759991876],[-110.935103889697,43.6263210259324],[-110.934643433944,43.6272330642061],[-110.934214140748,43.6276555861549],[-110.933846689372,43.6275663880756],[-110.933295414842,43.6274770786732],[-110.932100922314,43.6273429007173],[-110.931044495455,43.6269974134707],[-110.930278448113,43.6272417208522],[-110.929757399197,43.627508425964],[-110.928960657321,43.627774964733],[-110.928133063704,43.6282194866416],[-110.927367018159,43.6284192797137],[-110.925743094992,43.6287520423644],[-110.924455864885,43.6292852533399],[-110.923229565708,43.6300632503101],[-110.922371551542,43.6302629488254],[-110.921299534422,43.6301732429014],[-110.919890636493,43.6299720440524],[-110.918818381319,43.6300380657399],[-110.917837966306,43.630170891748],[-110.916597556392,43.6299808973179],[-110.915342192223,43.6295572369329],[-110.91411719201,43.6293561010435],[-110.913228267714,43.6297337141237],[-110.912522519785,43.6305564783651],[-110.912521424739,43.6313130095686],[-110.912244784954,43.6319580818038],[-110.911907162138,43.6324028484535],[-110.910834500925,43.6327135576758],[-110.910159816739,43.633202567748],[-110.909117098171,43.6339583023466],[-110.908259004056,43.6341801409949],[-110.907493473245,43.6339347903393],[-110.906177096401,43.6333329765671],[-110.904554508131,43.6326641471627],[-110.902748220674,43.6319506416905],[-110.901830066096,43.6314158574824],[-110.900942268288,43.6310590983952],[-110.900268892049,43.6307470399026],[-110.900420912148,43.6314146747779],[-110.900756714977,43.6321269889683],[-110.900939282288,43.6328836740005],[-110.901367148061,43.6335070584897],[-110.902683301225,43.634220183992],[-110.90352482861,43.6348105239917],[-110.903645669083,43.635878667778],[-110.904256838785,43.6368582070626],[-110.904898807227,43.6377487619531],[-110.905540862805,43.6385948128902],[-110.906519747088,43.6395746316508],[-110.907621387952,43.640443284166],[-110.90890722567,43.6410895579258],[-110.910239034673,43.6417469775605],[-110.910544666685,43.6422589801786],[-110.910114558717,43.6430374352126],[-110.909531805422,43.6434375072295],[-110.908642610733,43.6438595915263],[-110.908243343726,43.6444823050553],[-110.908625558913,43.6450054970381],[-110.908992844998,43.6452727915651],[-110.909881194372,43.6454292272783],[-110.909942013012,43.6457407870023],[-110.910002531614,43.6462526021749],[-110.910308318137,43.6466756001351],[-110.910424259199,43.6468202861867],[-110.910496670598,43.6469867412779],[-110.910784646223,43.6476952912268],[-110.911108795209,43.6483776347659],[-110.911596088131,43.6486796962303],[-110.911753810736,43.6487273762541],[-110.91255308137,43.6489689881298],[-110.91287780348,43.6492709257199],[-110.912931411343,43.6496775991955],[-110.912912363466,43.650359683619],[-110.912784962596,43.6510154528983],[-110.912639759811,43.6514875686511],[-110.912499243538,43.6519444375336],[-110.912494555231,43.6519596826425],[-110.911970227464,43.6522872250332],[-110.910596617156,43.6526928309923],[-110.909962927588,43.6526831497681],[-110.909455580676,43.6528010708076],[-110.908561541372,43.6528864044519],[-110.908109281847,43.6528000334659],[-110.907829575214,43.6525886669174],[-110.907549646697,43.6525415320307],[-110.907129341145,43.6527210635001],[-110.906568846307,43.6530021535718],[-110.905943958432,43.6531189586536],[-110.905599381757,43.6530639486107],[-110.905200788486,43.6531105481701],[-110.904941817664,43.6534153325495],[-110.904822541157,43.6539235563423],[-110.904832178284,43.6546430319047],[-110.904777288525,43.6552998924532],[-110.904965132539,43.6557106105781],[-110.905320255435,43.6559142235256],[-110.905912557821,43.6559772588824],[-110.906752706293,43.6559701038125],[-110.907215807584,43.6560017495058],[-110.907840404405,43.656080440238],[-110.908227910669,43.6562449673322],[-110.908367351659,43.6566282717863],[-110.908463142611,43.6573869138599],[-110.908742319238,43.6579658328743],[-110.908968139531,43.6582162553899],[-110.909263747243,43.658619226901],[-110.909316840372,43.659127587973],[-110.909197402168,43.6597609385083],[-110.909023994979,43.6604646326213],[-110.90900178054,43.6609103716753],[-110.908866347833,43.66143031678],[-110.908693371835,43.6618446588649],[-110.908197371543,43.6621649078759],[-110.907863080578,43.6623992574493],[-110.907377700168,43.6628133530505],[-110.90684912876,43.6632899756898],[-110.906665311893,43.6637355871929],[-110.906324981555,43.6643804926299],[-110.906000566668,43.6651779043695],[-110.905870455581,43.6657174014527],[-110.905998534679,43.6664838915218],[-110.906271912681,43.6673404297984],[-110.906507973768,43.6679505991749],[-110.906528394271,43.6686779010487],[-110.906581340974,43.6692722832959],[-110.906731435085,43.6706184684589],[-110.906622853022,43.6711658021888],[-110.906299128041,43.6714979083476],[-110.905544279098,43.6719371985188],[-110.904870658517,43.6721126103816],[-110.904224408705,43.6720143407903],[-110.903524439639,43.6718084887978],[-110.902905325237,43.6715733728529],[-110.902084010844,43.6714358424861],[-110.900858460861,43.6714836954717],[-110.900387060035,43.6715028497805],[-110.898885489206,43.6714966867967],[-110.897673215425,43.6716129471392],[-110.896877601833,43.672228100873],[-110.896189105151,43.6731952571965],[-110.895218019143,43.6740155283788],[-110.894745542134,43.6746505053484],[-110.894596833225,43.6749729587746],[-110.894319773029,43.6755250184702],[-110.894089497092,43.6762775126528],[-110.893899379442,43.6771668996802],[-110.893588003602,43.678075725893],[-110.893452869135,43.6783297631917],[-110.893026865569,43.6793117994721],[-110.89275507489,43.6806703251991],[-110.892403273964,43.6815693353769],[-110.892207242704,43.6819748338201],[-110.892004937611,43.6821212785148],[-110.891897146963,43.6821505008872],[-110.891439290036,43.6820816578874],[-110.890564215066,43.681836464557],[-110.890200931874,43.6816210684462],[-110.889595952463,43.680994883003],[-110.889071675002,43.6804371955654],[-110.888614104637,43.6802314816094],[-110.888183266338,43.6801528745063],[-110.887792362646,43.6802991287486],[-110.887481771035,43.6807289480509],[-110.886995984587,43.6812074741985],[-110.88636184137,43.6817836090786],[-110.885943550739,43.6821742181496],[-110.885316131412,43.6827454662544],[-110.883562269635,43.6842002684246],[-110.88276554842,43.685225888575],[-110.882482145219,43.6855090695639],[-110.882460139189,43.6854868288834],[-110.881863715333,43.6848828499962],[-110.881325794259,43.6844326428678],[-110.880504955075,43.684011470632],[-110.87991266796,43.6838153606856],[-110.879111658188,43.6835945966404],[-110.878168627464,43.6836815982904],[-110.877481129709,43.6839448170594],[-110.876901724436,43.6840419653491],[-110.876187708413,43.6840803159647],[-110.875406420255,43.684089265196],[-110.874019036977,43.6840780091468],[-110.871870735738,43.6840121442937],[-110.870267587909,43.684108135493],[-110.869418471556,43.6843515727057],[-110.868799110117,43.6842433559906],[-110.868314232765,43.6842134889121],[-110.867573248419,43.6842810782923],[-110.867189525859,43.6841877807096],[-110.866704996155,43.6840112737954],[-110.866207105807,43.683785874076],[-110.866013190978,43.6837155043762],[-110.865811158074,43.6836076249709],[-110.864888007965,43.6825767442942],[-110.864149676345,43.6816803952401],[-110.863594318972,43.6817245227574],[-110.86309953949,43.6822612432977],[-110.86291303127,43.6828878722191],[-110.862598234645,43.6856635425785],[-110.862613135899,43.686176627837],[-110.862509319399,43.6862804114353],[-110.862200012378,43.6874593386722],[-110.861554014993,43.6883708586805],[-110.861031932116,43.6887262543073],[-110.860387509477,43.6889479913641],[-110.859927700511,43.6889029428696],[-110.858671353585,43.6885454209267],[-110.856540958465,43.6882646940926],[-110.855743999196,43.6881524615833],[-110.85503913521,43.6879958344669],[-110.853598920214,43.6876157788095],[-110.852097125705,43.6873468785988],[-110.85007387175,43.6871662956994],[-110.848510445626,43.6870307751826],[-110.847345855319,43.686806752258],[-110.846028079798,43.6865380127689],[-110.844097545455,43.686090435963],[-110.842504544097,43.6855542791119],[-110.841263907808,43.6851187082716],[-110.840192071248,43.684627728296],[-110.83896665242,43.6842477792741],[-110.838016653464,43.684068458361],[-110.837404251274,43.6837560983672],[-110.83663755984,43.6838217777079],[-110.835931225312,43.6842435515272],[-110.835440112753,43.6844431180061],[-110.834488476168,43.6848645366641],[-110.833505982454,43.6853526570625],[-110.832493490399,43.6855959664489],[-110.831603322834,43.6859506970818],[-110.83019121253,43.6865494216617],[-110.829177743108,43.6871264627393],[-110.828439643253,43.6879041575261],[-110.82724158621,43.6886811666718],[-110.826350511347,43.6893251168232],[-110.825797614459,43.6896580539552],[-110.824379650733,43.6900882550509],[-110.825171764489,43.6907891954732],[-110.82593476205,43.6917576401058],[-110.826216851914,43.6922931634214],[-110.827206321945,43.6934265811859],[-110.827770894237,43.694374137752],[-110.828448651559,43.6954247605971],[-110.828844180677,43.695981025299],[-110.829381367827,43.6965992383555],[-110.829620469711,43.6973096266793],[-110.829193937936,43.6976794585351],[-110.828852323905,43.698111155631],[-110.829019895638,43.6990375397283],[-110.829158290091,43.7002520119402],[-110.829384004382,43.7006845399884],[-110.830319540462,43.7008917132419],[-110.831424883283,43.7012431899936],[-110.83216169136,43.7015118025456],[-110.832813231351,43.70184203208],[-110.833152391185,43.7022952946248],[-110.833236243527,43.7027481926639],[-110.833319813798,43.7033039952306],[-110.833857734871,43.7036957967546],[-110.8346226692,43.7040673387259],[-110.835771051205,43.7042850557363],[-110.83667892636,43.7042451705042],[-110.837558473143,43.7042052358905],[-110.838409147175,43.7043504807594],[-110.838947166165,43.7047216783869],[-110.839455453614,43.7056073525976],[-110.839764402206,43.7067808828179],[-110.840357395397,43.7078313155485],[-110.840412612142,43.7084076537978],[-110.840439676585,43.7089016300384],[-110.840579247831,43.7097662140522],[-110.84043559464,43.7104451839359],[-110.840021558431,43.7114427860937],[-110.839394741873,43.7124298046496],[-110.838937317934,43.7137257633483],[-110.838621632875,43.7150630784345],[-110.83805128262,43.7161324911412],[-110.838306432008,43.7162151668554],[-110.838930173633,43.7164012551316],[-110.840048484533,43.7173392160675],[-110.840415834399,43.7179159790481],[-110.840640931548,43.7186366138136],[-110.841376910481,43.719316779092],[-110.841885949819,43.7199760526779],[-110.842679838647,43.7202240921353],[-110.843700424522,43.7205959140503],[-110.844549808573,43.721337952575],[-110.84588158344,43.7220970860784],[-110.847763086836,43.7231862115425],[-110.848783528083,43.7236485429588],[-110.850076413983,43.7241112135801],[-110.851278429003,43.724606682699],[-110.851913579231,43.7248215277696],[-110.852321947071,43.7249372946052],[-110.852548693527,43.7250528327054],[-110.85238876466,43.7254642458574],[-110.851638349801,43.7259572349875],[-110.851090383766,43.7272078476536],[-110.850508153291,43.728532502803],[-110.850210094975,43.7297011083674],[-110.850095017194,43.730326614513],[-110.849775220546,43.7311000386355],[-110.849569889028,43.73149492413],[-110.849590579924,43.7323017145659],[-110.849474956866,43.7331412584268],[-110.849234588357,43.7339230155024],[-110.849664898446,43.7343681127619],[-110.850593247105,43.735423030547],[-110.851815770663,43.7369063916266],[-110.852585201959,43.7379775575727],[-110.852992495413,43.7385707916647],[-110.853364752776,43.7395673628492],[-110.853522069341,43.7402426058815],[-110.853474691295,43.7410493089699],[-110.853609585013,43.7416092714261],[-110.853540297955,43.7420866562438],[-110.853311641681,43.7427284875059],[-110.85312852011,43.7433209801137],[-110.853036115807,43.743962981154],[-110.852898851435,43.7443744227599],[-110.852658281704,43.7452385079008],[-110.852180028528,43.745781234483],[-110.851906206758,43.7463077537969],[-110.851859771044,43.7467193077784],[-110.852607423584,43.7474611531178],[-110.852651678188,43.7479386801108],[-110.852650027084,43.7486137229507],[-110.852466317117,43.749436717207],[-110.852442355455,43.7499470860648],[-110.852588503267,43.7505482272079],[-110.85251776543,43.751601869062],[-110.852448489152,43.7520627904171],[-110.852515489998,43.7525238821231],[-110.852855458315,43.7528206701915],[-110.853308877565,43.753166994617],[-110.853897654962,43.7538921691298],[-110.85455423001,43.7547656051413],[-110.855029666967,43.7554083126688],[-110.855119766193,43.7557212486033],[-110.855628115626,43.7568496965537],[-110.855557423603,43.757903340362],[-110.855419538495,43.7585617519144],[-110.855258655618,43.7593353881201],[-110.854644089386,43.7598450276527],[-110.854097939744,43.7602394997353],[-110.853551461319,43.7607656842467],[-110.853096284066,43.761110870129],[-110.853196871124,43.7617778090225],[-110.85362715606,43.7623216760484],[-110.853898310732,43.7629147370164],[-110.853760717576,43.7634414312842],[-110.853328360227,43.7637372523977],[-110.852759775161,43.7639999723846],[-110.852213983947,43.7642297895515],[-110.851213793422,43.764475493814],[-110.849803970228,43.7650005622022],[-110.849189463285,43.7654443151695],[-110.848346344984,43.7664475639851],[-110.8475270518,43.76700629499],[-110.846468836395,43.7677046563212],[-110.845581307183,43.7682797477889],[-110.845421421435,43.7686088289368],[-110.845464560332,43.7694979685549],[-110.845304158951,43.7700246217267],[-110.845144267814,43.7703537010588],[-110.845301773026,43.7709466298551],[-110.845686950857,43.7713587506487],[-110.846298577801,43.772067528123],[-110.846819843211,43.7725786101527],[-110.847205422589,43.7728425438766],[-110.847783023147,43.7735430366552],[-110.84791817558,43.7740042177546],[-110.847916667308,43.7745969378204],[-110.847870133678,43.7750249543112],[-110.848051110971,43.7753380153133],[-110.848550574268,43.7755033050028],[-110.849753923287,43.7758670708266],[-110.85077513978,43.7763787741989],[-110.851772833888,43.7772197268427],[-110.852304920403,43.7779859961667],[-110.852349226212,43.7784470573864],[-110.852665682923,43.7791224993528],[-110.852845035163,43.7801105909294],[-110.852751541203,43.7811642012323],[-110.852750201815,43.7817075262004],[-110.852702640512,43.782563619707],[-110.852736323742,43.7826669322222],[-110.852871796874,43.7830824627515],[-110.853506959678,43.7835442603328],[-110.853868220763,43.7844996503257],[-110.853844286949,43.784993554821],[-110.853456578564,43.7855528629088],[-110.853137122378,43.7860793267013],[-110.85295418047,43.7865401030689],[-110.852953571412,43.7867870691224],[-110.853224665897,43.7874459857133],[-110.853518856966,43.7879567521308],[-110.85398416991,43.7881960652631],[-110.854097239957,43.7884267077239],[-110.853937024527,43.7888875133363],[-110.85400447992,43.7891839582422],[-110.854344743784,43.7894478108894],[-110.855003312193,43.7896626638605],[-110.856093704353,43.7898780406779],[-110.857184616637,43.7898793726519],[-110.858093397295,43.790012188593],[-110.858751790533,43.7903093425384],[-110.859523285258,43.7908371275175],[-110.860067437945,43.7913975676127],[-110.860361898509,43.7918259929767],[-110.860268635416,43.7928302141383],[-110.8601297945,43.7938837721013],[-110.859432898571,43.7954388290535],[-110.859249975528,43.7958996149686],[-110.859316998831,43.7963936275697],[-110.85990650566,43.7970199793307],[-110.860541253443,43.7977451675384],[-110.86079025027,43.7981900021871],[-110.860652943677,43.7985849851655],[-110.860401711842,43.7990950845207],[-110.858797220133,43.799924621438],[-110.858250302432,43.8005002186744],[-110.85799888734,43.8010761708518],[-110.858043918987,43.8012573330721],[-110.858565927304,43.8016037148646],[-110.859156447432,43.8018184605958],[-110.860700485217,43.8025611969006],[-110.861948658372,43.8034682098766],[-110.862652644704,43.8037818564892],[-110.863811294452,43.8040960278941],[-110.864993247397,43.8041632454189],[-110.866402384278,43.8042965683699],[-110.868357006945,43.804479875191],[-110.868743394807,43.8045132351164],[-110.869538109186,43.8049421920735],[-110.870241830515,43.8054039724675],[-110.870206531216,43.8059554894903],[-110.869841428935,43.8065807342097],[-110.869271390395,43.8073539294927],[-110.869201310125,43.8082099999065],[-110.868995796249,43.8086213815244],[-110.868608221713,43.8091148818268],[-110.868698289498,43.8095101277323],[-110.869515300062,43.8101696099442],[-110.869900035922,43.8109767886178],[-110.870205656257,43.8115780761879],[-110.870408663833,43.8123191963203],[-110.870316107714,43.813059990273],[-110.87001892256,43.8138005604766],[-110.869562932332,43.8143763105271],[-110.868902266356,43.8149682932321],[-110.868407576706,43.8154898457591],[-110.868718195266,43.815955951688],[-110.868762364531,43.8165487173021],[-110.867957636631,43.8176650076101],[-110.867656292277,43.8183012406771],[-110.868585280537,43.8195203360976],[-110.869354385744,43.8213487332557],[-110.869648016264,43.8222545969928],[-110.869783840637,43.8225346408618],[-110.870429256812,43.8237619450086],[-110.870769323945,43.8242397844717],[-110.870881420217,43.8249808025512],[-110.870894520349,43.8250830540386],[-110.870993234419,43.8258535340904],[-110.870741296508,43.8266764746153],[-110.870626123505,43.8273513857762],[-110.870546562415,43.8280154679319],[-110.870689100796,43.8281837414392],[-110.871272705694,43.828526845384],[-110.872106624348,43.8289306512735],[-110.87291208168,43.8296365965297],[-110.873245145546,43.8300398557403],[-110.873299640945,43.8305838289302],[-110.872990836981,43.8318526315624],[-110.872975426382,43.8325664098054],[-110.873059456591,43.8326966988578],[-110.873285315511,43.8334378361627],[-110.874361775699,43.8352747550948],[-110.87442893375,43.8357852202001],[-110.874245202223,43.8366247045037],[-110.873766821486,43.8369699442206],[-110.873901967631,43.83759573119],[-110.874193762893,43.8394400427736],[-110.874179552444,43.8407818675618],[-110.874222646424,43.8419179494431],[-110.874243896971,43.8426259355298],[-110.874401914222,43.8432023535324],[-110.874696731417,43.8436307377862],[-110.875514721145,43.8440761377343],[-110.875946209824,43.8444223411512],[-110.876763639902,43.8451476230763],[-110.877159884079,43.846045338906],[-110.877158660573,43.8466380512877],[-110.876883664705,43.8476091573071],[-110.87654085322,43.8483661551741],[-110.876153014579,43.848892607041],[-110.876265051563,43.849715937307],[-110.876649720947,43.8507206596579],[-110.877399298576,43.8512976874191],[-110.877977397699,43.8522943717762],[-110.878702477373,43.8537439703436],[-110.878791940592,43.8545014176385],[-110.879107990367,43.8557200949926],[-110.879128668686,43.8567408989898],[-110.8787971616,43.8575226122147],[-110.878431261615,43.8584277688589],[-110.878430083924,43.8590040153782],[-110.878814412847,43.8602227632887],[-110.879312964355,43.8612275890853],[-110.879316545938,43.8612714211043],[-110.879357369876,43.8617709540964],[-110.87915154159,43.8622811354943],[-110.878786692634,43.8626594382365],[-110.877955036835,43.8631936727778],[-110.876952854745,43.8636536327986],[-110.876543063075,43.86375198896],[-110.875814962368,43.8637183020254],[-110.875200525493,43.8637505822077],[-110.874312195882,43.8641612462594],[-110.873583177994,43.8645556108801],[-110.873399556062,43.8652963044955],[-110.873079391105,43.8660368490151],[-110.872531935313,43.8666454366118],[-110.871892589952,43.8676490628951],[-110.871549495497,43.8684554358476],[-110.870784215317,43.86979643501],[-110.870577030575,43.8708828452155],[-110.870734333666,43.8718050119281],[-110.87111926446,43.8727109638986],[-110.871618644215,43.8733206820072],[-110.872027668723,43.8736174810238],[-110.872026110146,43.8743419040963],[-110.871997321836,43.874427592538],[-110.871945937304,43.8745805486095],[-110.871718209888,43.8746296911458],[-110.870671473156,43.8745297696514],[-110.868395414415,43.8745931105929],[-110.866415610174,43.8744591766222],[-110.864321348887,43.8746214276598],[-110.863205943139,43.8747024610598],[-110.862658878114,43.8750640383281],[-110.861279671302,43.8760255782947],[-110.861028925455,43.8761899256899],[-110.860619197566,43.8762223661838],[-110.859731950424,43.8760566745801],[-110.8590264136,43.8760393703042],[-110.85784254904,43.8761696608949],[-110.856886307691,43.876300216692],[-110.856225627342,43.876562838779],[-110.855268255015,43.8771543782119],[-110.854333664861,43.8777294711366],[-110.852785382536,43.8779580415404],[-110.85162473224,43.8778907296834],[-110.850748422985,43.8778978537243],[-110.850270609086,43.877847857858],[-110.849744079548,43.8790490666954],[-110.849103259154,43.8804312386852],[-110.848669698062,43.8808587488183],[-110.848282122627,43.8810887491728],[-110.847235146943,43.8810709309579],[-110.846278215689,43.8814154310414],[-110.845298675635,43.8817105011107],[-110.844729191355,43.8818743925402],[-110.84406899969,43.8819064466318],[-110.842520642805,43.8821019525193],[-110.841131348811,43.8823964371098],[-110.840618819517,43.8825356877614],[-110.840299260025,43.8828645371897],[-110.840024116833,43.8836050511884],[-110.839749012269,43.8843290990391],[-110.839950914917,43.8854324739963],[-110.840380067078,43.8866843361134],[-110.840560678755,43.8872443635077],[-110.840536547312,43.8877547192014],[-110.840284990286,43.888182446752],[-110.839860498585,43.8894249123743],[-110.839811954526,43.8905444086409],[-110.840037131625,43.89146671],[-110.840377162824,43.8920104887878],[-110.840626311467,43.8924882865721],[-110.840306257002,43.8929817770236],[-110.840008566995,43.8936234740249],[-110.839606620313,43.8949318254416],[-110.83935462491,43.8955077261727],[-110.838943118356,43.8961327992152],[-110.839465174283,43.8967262235224],[-110.84069151119,43.8978968471763],[-110.840941347942,43.898127684733],[-110.841622734458,43.8987542417085],[-110.842190029543,43.8994794271724],[-110.84247261348,43.9002453875987],[-110.842744495788,43.9007561393493],[-110.844039807138,43.9017292487375],[-110.845586316189,43.9024392476572],[-110.846950361235,43.9032806991786],[-110.847745849064,43.9038579767466],[-110.848382084457,43.9043856492239],[-110.848517576453,43.9048303545495],[-110.848265162435,43.9055873785558],[-110.847587987221,43.907702141864],[-110.847106343803,43.9090351102235],[-110.846943459479,43.9103849534399],[-110.847202960307,43.9113155113554],[-110.847087356113,43.9119903902223],[-110.846698164609,43.9127801592197],[-110.846195559903,43.9133886757862],[-110.845898513089,43.9137669608155],[-110.84589765969,43.9140962409256],[-110.846761605431,43.9146736129195],[-110.847806588652,43.9157122063972],[-110.847965383845,43.915959371962],[-110.84778178976,43.9165024495091],[-110.847415861029,43.9170946826658],[-110.847233349415,43.917577923088],[-110.847238425794,43.9178444760764],[-110.847165993735,43.9184589787741],[-110.846904839108,43.9189878767895],[-110.846816482614,43.9190903527721],[-110.846478442081,43.9194824139193],[-110.846285614213,43.9209845122141],[-110.84646315006,43.9214693690779],[-110.846459249575,43.9215140412982],[-110.84643434558,43.9223372121885],[-110.847116067168,43.9229637343466],[-110.847192889294,43.9240916227236],[-110.848806214137,43.9256413263331],[-110.849463716246,43.9268605086492],[-110.850097882819,43.9283101535785],[-110.850233567055,43.9287054625725],[-110.851859327276,43.9299176260073],[-110.85324524091,43.9314175866405],[-110.854312278669,43.9329171361696],[-110.854925334833,43.9337575590461],[-110.855060137821,43.9345315327805],[-110.855342289669,43.9356102733041],[-110.85554581198,43.9362361549736],[-110.855795305575,43.9366974522547],[-110.856454266549,43.9374226728759],[-110.856839283581,43.938378053143],[-110.857792890171,43.9397621832456],[-110.858337945664,43.9405037192916],[-110.858393905317,43.9409236195465],[-110.858309157355,43.9411644332429],[-110.857994402052,43.9422691372017],[-110.857790471906,43.9427086688414],[-110.857070968974,43.9433843804584],[-110.856444814475,43.9441729649742],[-110.856256281453,43.9446914466823],[-110.856129242604,43.9455933988227],[-110.85565829902,43.9467204570751],[-110.855031264172,43.9478473225663],[-110.854435311032,43.949019327249],[-110.85437138512,43.949628170334],[-110.854572435267,43.9503839324112],[-110.854789346967,43.9510382277336],[-110.854755924249,43.9519402924604],[-110.854377891618,43.9533380917413],[-110.853375086096,43.9548929821164],[-110.852748537237,43.9557717545831],[-110.852538542564,43.9559577892373],[-110.852341796246,43.9561320875153],[-110.852120339969,43.9573045463879],[-110.851786930251,43.9595481157122],[-110.852439426049,43.960811881207],[-110.853622556686,43.9621439590118],[-110.854930024937,43.9637242581624],[-110.856082867077,43.9647179832722],[-110.856721830654,43.9651810891371],[-110.857719095367,43.9659716351534],[-110.85927923186,43.9664245556924],[-110.860838756601,43.9671480849925],[-110.861804462599,43.9681189810097],[-110.863300154852,43.9694738738138],[-110.863736126124,43.9699930858353],[-110.863856838139,43.9718199828912],[-110.863933429398,43.9724628203456],[-110.865088181357,43.9727573253298],[-110.86574273789,43.9732993308535],[-110.866271780015,43.9741118220573],[-110.866988312219,43.9748794153398],[-110.868609861138,43.9759411963423],[-110.869732382442,43.9767317743352],[-110.871026380456,43.9776691206988],[-110.871525087373,43.978120712828],[-110.871649325275,43.9784365833167],[-110.87105388148,43.9793831433205],[-110.869895951283,43.9804643995362],[-110.869081186506,43.9817038914194],[-110.86867296599,43.9826957508319],[-110.868702298679,43.9835527785087],[-110.869200339944,43.984320114659],[-110.870213336852,43.9852797109047],[-110.871646593498,43.9869050510939],[-110.872238116146,43.9878077902314],[-110.872391572651,43.9890708943754],[-110.872201721801,43.9901983158675],[-110.871543889112,43.9910545992784],[-110.871636331144,43.9916410631309],[-110.872056404931,43.9923970262468],[-110.872429998986,43.9929837922139],[-110.872616457798,43.9934350423057],[-110.873209313546,43.9937514116576],[-110.873770745327,43.9941579555865],[-110.873769254124,43.9948570806527],[-110.873206029306,43.9952849767102],[-110.871173696078,43.9960946771101],[-110.869735468155,43.9966343648261],[-110.868734932677,43.9970166522873],[-110.868078433087,43.9972188962582],[-110.867171800302,43.9975110651435],[-110.866607792153,43.9982546638084],[-110.866730472376,43.9992696618007],[-110.866729305464,43.9997883664378],[-110.86665005609,44.0002957065084],[-110.866461834784,44.0006337789581],[-110.867178323868,44.0015592285334],[-110.867737657184,44.0029129925791],[-110.868048376356,44.0036801178568],[-110.868578062574,44.0043347230231],[-110.869388914288,44.0050121891342],[-110.870543625823,44.0056223657487],[-110.872104795379,44.0061202121352],[-110.873979024218,44.0063477396042],[-110.87504026425,44.0068675628183],[-110.875320758706,44.007206142494],[-110.87536626646,44.0078489308414],[-110.874800385323,44.0094721010373],[-110.873985312425,44.0107116132186],[-110.873201741647,44.0118158400785],[-110.871792824853,44.0130772535278],[-110.871229309879,44.0135502407986],[-110.871053860819,44.0151850889189],[-110.871209123836,44.0156363038909],[-110.871394901725,44.0164258338108],[-110.871300065682,44.0169218808237],[-110.870861861199,44.0172371352588],[-110.870173443569,44.0176423231589],[-110.869952892794,44.0184539619667],[-110.869733730814,44.0186341400994],[-110.869700185026,44.0196715065799],[-110.869916459821,44.0207993556534],[-110.8701648422,44.0215438522664],[-110.871037850146,44.0225145518343],[-110.87186476823,44.0231130758127],[-110.872802771083,44.0229336767348],[-110.873615158917,44.0230247522005],[-110.874801518997,44.0236349204933],[-110.87539406303,44.0242444546623],[-110.875580303551,44.0248535601303],[-110.875485822343,44.0251917445244],[-110.874900105506,44.0258360276439],[-110.874420644096,44.0263633379167],[-110.873637069725,44.0273773550268],[-110.872055609922,44.0287626190993],[-110.868644713974,44.030495406796],[-110.867142958093,44.0311026389925],[-110.866579029894,44.0316658096888],[-110.86629708915,44.0319361168828],[-110.865858283694,44.0324543207909],[-110.865026690777,44.0338628851179],[-110.864650691932,44.0342458432607],[-110.86299234173,44.0349204987461],[-110.861240702385,44.0353694975821],[-110.858863496038,44.0359530370235],[-110.856767595326,44.0365368690763],[-110.854421616216,44.0370978014883],[-110.852606366267,44.037929975829],[-110.851572396391,44.038853316845],[-110.850365789183,44.0400357782251],[-110.849709208746,44.0400574944082],[-110.848739883435,44.0401239105301],[-110.847051212397,44.0403021462365],[-110.845738042539,44.0403455364254],[-110.845018102127,44.0406828730244],[-110.844923008268,44.0411788946522],[-110.84488948943,44.0420358311873],[-110.844636464557,44.0431405517465],[-110.844290767683,44.0438166589092],[-110.843696252746,44.0439962879355],[-110.842616194805,44.0445248223267],[-110.841676115945,44.0453128846722],[-110.840673661665,44.0460331989232],[-110.839484015548,44.0465953818768],[-110.839108694931,44.0466399716605],[-110.838638340641,44.0471354752939],[-110.838355270715,44.0477439923271],[-110.837791036191,44.0482619133643],[-110.836351239809,44.0488011670755],[-110.834505327665,44.0492045147508],[-110.8332236204,44.0491124987579],[-110.83272296414,44.0492470958675],[-110.831813623832,44.0501478797875],[-110.831561094829,44.050981945266],[-110.831433505313,44.0518612918159],[-110.831790109531,44.0529104752247],[-110.832538788845,44.0535430032285],[-110.833631649576,44.0541083584212],[-110.834286107294,44.0548986064343],[-110.834188876343,44.0561161945583],[-110.834283152735,44.0559359980189],[-110.835098415178,44.0551478232914],[-110.835975820377,44.0544950418793],[-110.837040266497,44.054045482981],[-110.838010159543,44.0538664099526],[-110.83863523786,44.0539800276335],[-110.838571337999,44.0544760844742],[-110.838255229834,44.0557160140747],[-110.83822123399,44.0567082578476],[-110.838531106949,44.0577460793084],[-110.83933926821,44.059551351473],[-110.839978011699,44.0604204765413],[-110.840726629029,44.0611431594782],[-110.841162520351,44.061865414006],[-110.841348951316,44.0623167061305],[-110.842222891713,44.0629718923302],[-110.84315886078,44.0638301221693],[-110.843250947978,44.0644842536701],[-110.843623144255,44.0656574546012],[-110.843276461031,44.0666492826254],[-110.842524850514,44.0670091103584],[-110.841866031475,44.0677524429685],[-110.840707605407,44.0681793657568],[-110.839049821144,44.0681996593758],[-110.837330913712,44.0677011453643],[-110.835785726084,44.0666052210538],[-110.834160291951,44.0662646601385],[-110.83331546146,44.066398771599],[-110.8323758093,44.0668710248607],[-110.831342376617,44.0673205838482],[-110.830528387986,44.0675900345043],[-110.82974550891,44.0679046257071],[-110.829026247625,44.0678584776703],[-110.82868284954,44.0676324591097],[-110.82762192302,44.0667739268073],[-110.825059885609,44.0658680518893],[-110.824121760584,44.0658215440252],[-110.823055723548,44.0666994651287],[-110.822459490135,44.0673525702696],[-110.822502434097,44.0686719273147],[-110.822532625575,44.0690328057945],[-110.822218552992,44.0694608178815],[-110.821965805699,44.0702948566015],[-110.821180824566,44.0712859492417],[-110.82105255772,44.0723231434156],[-110.820644203355,44.0728863179067],[-110.819609196824,44.0737868074179],[-110.817948047472,44.0748441774668],[-110.816694413458,44.0756089889791],[-110.815395061485,44.0759790532478],[-110.815269368313,44.0761592688092],[-110.815173542326,44.0767905733133],[-110.815577107773,44.0777834964383],[-110.816418653124,44.0787771043812],[-110.816884959605,44.0797250169711],[-110.816882367965,44.0805594343908],[-110.816222443998,44.0815055812635],[-110.815469563264,44.082158402349],[-110.814153243013,44.0829005315839],[-110.812399606713,44.0834164267258],[-110.809770660084,44.0837053542002],[-110.808315284221,44.0838721153777],[-110.806688407394,44.0838694368213],[-110.803967278346,44.0836393825093],[-110.802185120535,44.0832981007439],[-110.800934531811,44.0830479041059],[-110.799464295118,44.083000286293],[-110.79777357143,44.0833807502121],[-110.796019935129,44.0838512883241],[-110.795301884773,44.0840125764857],[-110.795300423214,44.0836225993593]]]},"properties":{"UNIT_CODE":"GRTE","UNIT_NAME":"Grand Teton National Park","DATE_EDIT":1741824000000,"STATE":"WY"}}]}